{"type":"FeatureCollection", "features": [
{"type":"Feature","geometry":{"type":"Polygon","coordinates":[[[-73.56642444575581,45.48518343190132],[-73.5656940285292,45.48543503783382],[-73.56484782674632,45.48600692342193],[-73.56642444575581,45.48518343190132]]]},"properties":{"DefaultAtt":null}},
{"type":"Feature","geometry":{"type":"Polygon","coordinates":[[[-73.54412886560479,45.47272183403523],[-73.54463957950556,45.47197897988576],[-73.54712506864705,45.471125142672896],[-73.54841202543302,45.469599809953166],[-73.55111657698822,45.467810314689316],[-73.55478957408681,45.46732264978146],[-73.55578807667563,45.46680648462281],[-73.5562407904883,45.466154566450875],[-73.55680523290374,45.4603604965341],[-73.55940933490155,45.45567155886036],[-73.55984424021814,45.45327476750775],[-73.56199327809253,45.449055568703685],[-73.5610887006414,45.44660549781848],[-73.55926923482363,45.445236159190436],[-73.55846225644788,45.44566269547437],[-73.55765340974803,45.44545583303062],[-73.55726050061533,45.44584781784121],[-73.55536670312063,45.44574609452839],[-73.55446128727687,45.44618421468361],[-73.55394498126378,45.4472297818337],[-73.5528579950501,45.447895187343406],[-73.55016148725038,45.44862362233227],[-73.54788927686724,45.44861072190872],[-73.54652528668676,45.45022450672004],[-73.54652490833183,45.45096397552098],[-73.54711970356732,45.45111835849523],[-73.545120884045,45.45231476366722],[-73.54010608568191,45.45890018353126],[-73.53916710484617,45.462878864382276],[-73.53350367430673,45.46674564949434],[-73.53195724625493,45.466854961999175],[-73.53342326173764,45.46951664418547],[-73.5345919852171,45.470017891360285],[-73.53421027962716,45.47021352998011],[-73.53489515501678,45.47050962243827],[-73.53521905966655,45.47143757926202],[-73.53652009157288,45.47261372189348],[-73.53821242944261,45.4750241448774],[-73.53918133246367,45.47505234989451],[-73.54162036597587,45.47420256371125],[-73.54230851710945,45.474386590724315],[-73.54412886560479,45.47272183403523]],[[-73.55820953826792,45.449456657771485],[-73.55826054005698,45.449203346411636],[-73.55856044789434,45.449625042388966],[-73.55969161614198,45.44927458687283],[-73.55990197728187,45.449692582559486],[-73.55935162383469,45.44962462525048],[-73.55894569625644,45.450467760717395],[-73.55847710237195,45.45031683708598],[-73.55872310174418,45.44985502735476],[-73.55820953826792,45.449456657771485]],[[-73.55387675060847,45.45251045690851],[-73.5549980556183,45.45365107235773],[-73.55577938883192,45.453969455097514],[-73.55515584783349,45.45599262035563],[-73.55363423076749,45.4559988372014],[-73.55347930803802,45.45192380720517],[-73.55387675060847,45.45251045690851]],[[-73.55083195498689,45.46451584367811],[-73.55143843363406,45.46500260671373],[-73.55120862175731,45.464736648150556],[-73.55202962533744,45.46441778855306],[-73.55133556274315,45.465712171620474],[-73.55030010107141,45.46602132263485],[-73.55000047319149,45.46549306535122],[-73.55083195498689,45.46451584367811]]]},"properties":{"DefaultAtt":null}},
{"type":"Feature","geometry":{"type":"Polygon","coordinates":[[[-73.55624825290606,45.490881248701484],[-73.55720907425676,45.490226665943325],[-73.55590304381847,45.49098088442452],[-73.55624825290606,45.490881248701484]]]},"properties":{"DefaultAtt":null}},
{"type":"Feature","geometry":{"type":"Polygon","coordinates":[[[-73.55189666785128,45.49537708770346],[-73.55092929884219,45.499731343991634],[-73.55142653054243,45.49976676346149],[-73.55169031166271,45.499062033467204],[-73.55189666785128,45.49537708770346]]]},"properties":{"DefaultAtt":null}},
{"type":"Feature","geometry":{"type":"Polygon","coordinates":[[[-73.53543299030777,45.53026005597487],[-73.53833878186516,45.526061413540496],[-73.53907467080495,45.522178320760254],[-73.53812725043714,45.51824811162205],[-73.53844267339461,45.5135822930156],[-73.53705385718504,45.5096495167629],[-73.53484053788452,45.506843586535105],[-73.5338215323567,45.50632378559752],[-73.53306787543893,45.506467089119475],[-73.53259977352994,45.506944148952535],[-73.52993846936435,45.51488966313888],[-73.53135201944491,45.52017317464569],[-73.5318698053717,45.5256521928851],[-73.53215872348197,45.52495922670772],[-73.53320956801001,45.52473755583919],[-73.53416106807906,45.52525918219984],[-73.53378242238635,45.52572092168377],[-73.53413652072406,45.52696350421406],[-73.53621194898707,45.52732640041842],[-73.53634529712505,45.52760080901447],[-73.53547813797567,45.52888875986091],[-73.53242983147334,45.528789792804815],[-73.53200886571618,45.52920923625533],[-73.53223140028622,45.53098906395207],[-73.53286288769647,45.53149550236987],[-73.53390507764531,45.53152938221406],[-73.53543299030777,45.53026005597487]],[[-73.53337591741136,45.50871927890592],[-73.53359111609213,45.50827382910519],[-73.53490900432165,45.50782260553248],[-73.53591180935537,45.50894710619143],[-73.53434569714,45.50948930106896],[-73.53337162130393,45.509274528423326],[-73.53337591741136,45.50871927890592]],[[-73.53542867613027,45.52338800395152],[-73.53575617120428,45.52337261386131],[-73.53569822623281,45.5228354258334],[-73.53700524021934,45.52288540182135],[-73.53862666797687,45.52404655911665],[-73.53821918162097,45.52527318679093],[-73.53657582851999,45.525854130033615],[-73.53591259176885,45.525661773510365],[-73.53516446493587,45.524893544193624],[-73.53542867613027,45.52338800395152]]]},"properties":{"DefaultAtt":null}},
{"type":"Feature","geometry":{"type":"Polygon","coordinates":[[[-73.53201468195469,45.52822210293143],[-73.53238322717144,45.52792595177645],[-73.53217212666364,45.52601474386708],[-73.53201468195469,45.52822210293143]]]},"properties":{"DefaultAtt":null}},
{"type":"Feature","geometry":{"type":"Polygon","coordinates":[[[-73.52932800111702,45.50872038989619],[-73.53012306262528,45.506228575402396],[-73.53004114735474,45.503911484428805],[-73.5293797265226,45.5019149012194],[-73.5280402651514,45.500054363573504],[-73.5260086444609,45.49826237149278],[-73.52362806577892,45.49689695380307],[-73.52037890689085,45.495753916495],[-73.51802989602093,45.495764513745144],[-73.52107953530394,45.50394508962936],[-73.52622433283179,45.52057853164995],[-73.52615428680092,45.5212948301713],[-73.52784234743082,45.52559207575628],[-73.52799184600674,45.52504583488488],[-73.52707377257359,45.52209996402896],[-73.52906668130892,45.52170713438913],[-73.52811980598632,45.512637822014085],[-73.52932800111702,45.50872038989619]],[[-73.5219247045564,45.49990990707644],[-73.52710583456339,45.517069822170555],[-73.52572228123272,45.51727352236709],[-73.51997419991464,45.49803510130441],[-73.52130355843974,45.49786117104847],[-73.5219247045564,45.49990990707644]],[[-73.52546435631133,45.49991282847202],[-73.525903393303,45.500195270950805],[-73.52643408270802,45.50208392843206],[-73.52719298773118,45.502234017072524],[-73.5273535819082,45.50345146463108],[-73.52692973372714,45.502960258968685],[-73.52609412882425,45.502946964046494],[-73.52588476694554,45.50399713895827],[-73.52673833664242,45.50401852891307],[-73.52670915989951,45.50452784766082],[-73.52565968739115,45.504302235587616],[-73.52562668199725,45.504823259879096],[-73.5266849007555,45.50465473204149],[-73.5267875238646,45.50512442329365],[-73.52534654197808,45.50508697893689],[-73.52557468737076,45.50580140226946],[-73.52476411674377,45.50751310055063],[-73.52423755529558,45.50620484348516],[-73.52353661739517,45.50125673276285],[-73.52354176672007,45.49844020387049],[-73.52388193487795,45.498055902598644],[-73.5251501030789,45.498329164485874],[-73.52567782134614,45.49943855258578],[-73.52546435631133,45.49991282847202]],[[-73.52665844647602,45.49991897973168],[-73.52688234889612,45.50028681737468],[-73.52602623938225,45.50021773911463],[-73.52624861102954,45.49961028506819],[-73.52665844647602,45.49991897973168]],[[-73.52673315882434,45.501369375393836],[-73.52756479504924,45.50113340824843],[-73.52779234866262,45.50072211854362],[-73.52793567209196,45.50192068100971],[-73.52728640818087,45.502227694135726],[-73.52662205669918,45.501824722907024],[-73.52673315882434,45.501369375393836]],[[-73.52722566707456,45.503558584410065],[-73.52731300815006,45.50420735116556],[-73.52814359915976,45.504352917057815],[-73.52718134455017,45.50447463764647],[-73.52722566707456,45.503558584410065]],[[-73.52830348627516,45.50420620053602],[-73.52884352736096,45.504206957385506],[-73.52884123163014,45.5047036729505],[-73.52830348627516,45.50420620053602]],[[-73.52826806739762,45.504999872396404],[-73.52884382421809,45.50478826542392],[-73.52881991616022,45.5055450400406],[-73.52826806739762,45.504999872396404]],[[-73.52691541863743,45.50496602442836],[-73.52814402231657,45.50515198435174],[-73.5272917205367,45.50515310066925],[-73.52704236585892,45.50549240241484],[-73.52691541863743,45.50496602442836]],[[-73.52703855334524,45.50556888994119],[-73.52725893903181,45.506107842392964],[-73.52697356511064,45.50608632358031],[-73.52703855334524,45.50556888994119]],[[-73.52859345677784,45.50562338062274],[-73.52873331497337,45.50633962987502],[-73.52845816260923,45.506319004134255],[-73.52859345677784,45.50562338062274]],[[-73.5266801230941,45.50739802709117],[-73.52695186865921,45.506241098980965],[-73.52723599362389,45.50626262693256],[-73.5266801230941,45.50739802709117]],[[-73.52821601243512,45.507617113237686],[-73.5277024893698,45.50752589702411],[-73.52779062470022,45.50722532475905],[-73.52830128467127,45.50729448021415],[-73.5287167451834,45.506441318880235],[-73.52821601243512,45.507617113237686]],[[-73.52805716571802,45.50872070910362],[-73.52746705222091,45.510132813611484],[-73.52720466785084,45.510086983584465],[-73.52805716571802,45.50872070910362]],[[-73.5261071529058,45.51127954767352],[-73.5255640781973,45.510359131902405],[-73.52581329458853,45.50965089191441],[-73.5261071529058,45.51127954767352]],[[-73.52743125808081,45.51023720255456],[-73.527138791207,45.511416073952326],[-73.5262338722879,45.51130111616154],[-73.52627217043128,45.511092342319245],[-73.52695564954386,45.51117765925951],[-73.52743125808081,45.51023720255456]],[[-73.52765912349187,45.52023444591959],[-73.52685636193797,45.51990169654818],[-73.52683283630957,45.518955070378624],[-73.52807188781708,45.51892686788727],[-73.5281696424807,45.51983568266974],[-73.52765912349187,45.52023444591959]]]},"properties":{"DefaultAtt":null}},
{"type":"Feature","geometry":{"type":"Polygon","coordinates":[[[-73.50103487697287,45.6980973753762],[-73.50143422632871,45.69908447546664],[-73.50225993525738,45.69933011782072],[-73.50258353631685,45.698490579300255],[-73.50189649471591,45.697165162356704],[-73.50082943034379,45.69700408759059],[-73.49915238087624,45.69740902056991],[-73.5007087058113,45.69766457171141],[-73.50103487697287,45.6980973753762]]]},"properties":{"DefaultAtt":null}},
{"type":"Feature","geometry":{"type":"Polygon","coordinates":[[[-73.49837000027631,45.702375094956004],[-73.49913926459618,45.70228601848816],[-73.5002694261459,45.70154188428016],[-73.49970185942483,45.70079683310758],[-73.50007817677783,45.69978183870738],[-73.49795036357776,45.69937871514814],[-73.4962885617945,45.70031356374394],[-73.49622678660265,45.70144192914063],[-73.4947947823496,45.70225351345699],[-73.49455319456281,45.70301923822271],[-73.49837000027631,45.702375094956004]]]},"properties":{"DefaultAtt":null}},
{"type":"Feature","geometry":{"type":"Polygon","coordinates":[[[-73.49234679866485,45.70348251457563],[-73.49336869074996,45.70362034448961],[-73.49451592625947,45.70323608746539],[-73.49455973577031,45.702297579210764],[-73.49617027702133,45.70145542443494],[-73.4962037628195,45.70068519025539],[-73.49382908004002,45.702023099567995],[-73.49222115453449,45.70244232763001],[-73.49203218191674,45.70336101853869],[-73.49234679866485,45.70348251457563]]]},"properties":{"DefaultAtt":null}},
{"type":"Feature","geometry":{"type":"Polygon","coordinates":[[[-73.58958276271532,45.42984977653227],[-73.59062679570395,45.42948572452453],[-73.59043085850399,45.42919965747518],[-73.58986694147966,45.42922745846533],[-73.58999468751323,45.428809531776714],[-73.58869724252064,45.429686788944814],[-73.58923151548217,45.43050921250993],[-73.58958276271532,45.42984977653227]]]},"properties":{"DefaultAtt":null}},
{"type":"Feature","geometry":{"type":"Polygon","coordinates":[[[-73.59046228967709,45.42089750005536],[-73.59017574878771,45.42070336123499],[-73.58948619289121,45.4209900647831],[-73.59046228967709,45.42089750005536]]]},"properties":{"DefaultAtt":null}},
{"type":"Feature","geometry":{"type":"Polygon","coordinates":[[[-73.58978521828791,45.41939347301695],[-73.59018515702935,45.41939406307707],[-73.58990131122114,45.419280899668514],[-73.58978521828791,45.41939347301695]]]},"properties":{"DefaultAtt":null}},
{"type":"Feature","geometry":{"type":"Polygon","coordinates":[[[-73.58972304605824,45.421280530711705],[-73.58989063313541,45.42139828535402],[-73.5901664012228,45.421251384448404],[-73.58972304605824,45.421280530711705]]]},"properties":{"DefaultAtt":null}},
{"type":"Feature","geometry":{"type":"Polygon","coordinates":[[[-73.58995170047673,45.42826417803671],[-73.58969259955832,45.428113779117474],[-73.5893463904055,45.42847832470132],[-73.58995170047673,45.42826417803671]]]},"properties":{"DefaultAtt":null}},
{"type":"Feature","geometry":{"type":"Polygon","coordinates":[[[-73.58895335212976,45.42018241197203],[-73.58726539481528,45.4201747154501],[-73.58862198625532,45.42072258320995],[-73.58972172626588,45.420447259780175],[-73.58961645413666,45.42013689205543],[-73.58895335212976,45.42018241197203]]]},"properties":{"DefaultAtt":null}},
{"type":"Feature","geometry":{"type":"Polygon","coordinates":[[[-73.5896642406579,45.42126077829895],[-73.58957333794362,45.421144773469756],[-73.58937030148753,45.42123311663727],[-73.5896642406579,45.42126077829895]]]},"properties":{"DefaultAtt":null}},
{"type":"Feature","geometry":{"type":"Polygon","coordinates":[[[-73.58916905077093,45.41921398443065],[-73.58938344911114,45.41904734344125],[-73.58903849907124,45.41907551367106],[-73.58916905077093,45.41921398443065]]]},"properties":{"DefaultAtt":null}},
{"type":"Feature","geometry":{"type":"Polygon","coordinates":[[[-73.58921626338329,45.43069091770193],[-73.58936612929902,45.43054740381448],[-73.58910033078249,45.4305720850394],[-73.58921626338329,45.43069091770193]]]},"properties":{"DefaultAtt":null}},
{"type":"Feature","geometry":{"type":"Polygon","coordinates":[[[-73.58898965441736,45.43093067193601],[-73.58895062360594,45.4305549252154],[-73.58867732648211,45.43074058331267],[-73.58898965441736,45.43093067193601]]]},"properties":{"DefaultAtt":null}},
{"type":"Feature","geometry":{"type":"Polygon","coordinates":[[[-73.58902171427005,45.41871706053897],[-73.58893382802609,45.418531981788824],[-73.58853081926897,45.41849527244309],[-73.58902171427005,45.41871706053897]]]},"properties":{"DefaultAtt":null}},
{"type":"Feature","geometry":{"type":"Polygon","coordinates":[[[-73.5888579585742,45.41965156227965],[-73.58903420305981,45.41958933144332],[-73.58880535497934,45.41951122034225],[-73.5888579585742,45.41965156227965]]]},"properties":{"DefaultAtt":null}},
{"type":"Feature","geometry":{"type":"Polygon","coordinates":[[[-73.58774175865894,45.421659121767185],[-73.58893647242805,45.42163119333354],[-73.58844039108185,45.421444410233214],[-73.58774175865894,45.421659121767185]]]},"properties":{"DefaultAtt":null}},
{"type":"Feature","geometry":{"type":"Polygon","coordinates":[[[-73.58647630185635,45.42078772741029],[-73.58562159583134,45.42064389342025],[-73.58676819410731,45.4217462481149],[-73.58642771238902,45.421361369665135],[-73.58792671066881,45.42144571193267],[-73.58871463104907,45.421131945787984],[-73.58647630185635,45.42078772741029]]]},"properties":{"DefaultAtt":null}},
{"type":"Feature","geometry":{"type":"Polygon","coordinates":[[[-73.58865309812987,45.418260670095904],[-73.588390069903,45.418112766702315],[-73.58846041542306,45.418285495231565],[-73.58865309812987,45.418260670095904]]]},"properties":{"DefaultAtt":null}},
{"type":"Feature","geometry":{"type":"Polygon","coordinates":[[[-73.58805402177927,45.422781003449884],[-73.58770623935159,45.42264718899865],[-73.58758254547477,45.42280656013354],[-73.58805402177927,45.422781003449884]]]},"properties":{"DefaultAtt":null}},
{"type":"Feature","geometry":{"type":"Polygon","coordinates":[[[-73.58744958155596,45.42194910118478],[-73.58777020629067,45.42187416019893],[-73.58709653308043,45.4217055047119],[-73.58744958155596,45.42194910118478]]]},"properties":{"DefaultAtt":null}},
{"type":"Feature","geometry":{"type":"Polygon","coordinates":[[[-73.58732751366996,45.42233702892569],[-73.58732467806858,45.4221570599289],[-73.58717913118221,45.422233658852306],[-73.58732751366996,45.42233702892569]]]},"properties":{"DefaultAtt":null}},
{"type":"Feature","geometry":{"type":"Polygon","coordinates":[[[-73.58224703673851,45.42071207841916],[-73.57927513449339,45.42088516989079],[-73.57360312995769,45.42196793154579],[-73.5706822996999,45.424222139684254],[-73.57049759730823,45.42469557429008],[-73.57139775154904,45.425107155986595],[-73.5703906115284,45.4249763969148],[-73.57039791923944,45.425715187695914],[-73.57340669128088,45.42615779937326],[-73.58013248830629,45.42444440628463],[-73.58475324508339,45.42441315284202],[-73.5861601422376,45.42354103307779],[-73.58617982682175,45.42220743028796],[-73.58439354911962,45.420589919644485],[-73.58224703673851,45.42071207841916]]]},"properties":{"DefaultAtt":null}},
{"type":"Feature","geometry":{"type":"Polygon","coordinates":[[[-73.58026185184731,45.42645460453387],[-73.58409608201772,45.4250489417631],[-73.58155143854086,45.42479524199542],[-73.58124503912971,45.42499972927371],[-73.58037177434102,45.42467010715895],[-73.58075946030115,45.42501358023894],[-73.57378270762352,45.42640051800645],[-73.57133667349075,45.42632289510263],[-73.57241712554361,45.42679913844283],[-73.57601027599199,45.42745278418963],[-73.58026185184731,45.42645460453387]]]},"properties":{"DefaultAtt":null}},
{"type":"Feature","geometry":{"type":"Polygon","coordinates":[[[-73.57747751905242,45.476074587481904],[-73.57723075257123,45.47645808601265],[-73.5778348646679,45.47582958431774],[-73.57747751905242,45.476074587481904]]]},"properties":{"DefaultAtt":null}},
{"type":"Feature","geometry":{"type":"Polygon","coordinates":[[[-73.57115789333736,45.42615719247991],[-73.57079978018676,45.42624956229038],[-73.57097976835486,45.42629436425723],[-73.57115789333736,45.42615719247991]]]},"properties":{"DefaultAtt":null}},
{"type":"Feature","geometry":{"type":"Polygon","coordinates":[[[-73.57083595927709,45.43023109888136],[-73.5701550622569,45.429862165706325],[-73.5701719857666,45.430456393255334],[-73.57083595927709,45.43023109888136]]]},"properties":{"DefaultAtt":null}},
{"type":"Feature","geometry":{"type":"Polygon","coordinates":[[[-73.48417398892808,45.70152950569055],[-73.48807226687633,45.70093026875681],[-73.49520626965474,45.69821515137258],[-73.49634014584178,45.69812341951142],[-73.49893281211492,45.69719125361044],[-73.49881595913101,45.69752509687591],[-73.49958513379855,45.69707878130157],[-73.50120439161499,45.6968718188675],[-73.50258091699361,45.69716154618143],[-73.50330132130193,45.69788947926697],[-73.50326153268915,45.69811713992143],[-73.50288141278516,45.69749357324729],[-73.5021404942696,45.69716695064072],[-73.50270936545363,45.698527465166855],[-73.50351193953932,45.698642626292624],[-73.50469842987339,45.69766177083358],[-73.50459566023888,45.696834843994246],[-73.50421554549162,45.69669538773343],[-73.50369290710326,45.69617980627045],[-73.50359914418145,45.69552384241941],[-73.5038778264861,45.69633456085656],[-73.50471250263828,45.6968015532067],[-73.5047407926683,45.69769686527555],[-73.50360182802285,45.69865522437817],[-73.50278000730238,45.6988496032217],[-73.50238323521856,45.69942099280875],[-73.50389469208167,45.69976379368715],[-73.50918145318322,45.699219104919806],[-73.51771509558117,45.69673818641298],[-73.52190914027862,45.69401278439421],[-73.52243043064009,45.6939874814507],[-73.5230588439424,45.692105824585894],[-73.52730138048035,45.68741859236381],[-73.52820025971069,45.68523628106651],[-73.53119671263526,45.68302912917398],[-73.5339462155948,45.680444031628724],[-73.53590943674608,45.677148262390695],[-73.54511586881928,45.67124658994386],[-73.54819443454691,45.6706757331072],[-73.55059074748519,45.67075567180331],[-73.55237917028765,45.66996032080247],[-73.55626727476057,45.66667499277617],[-73.56641000477364,45.66143164233979],[-73.56805184276666,45.660836787473166],[-73.56839224367896,45.6611065296185],[-73.56882670525995,45.660665349065866],[-73.56928527879228,45.6610231977168],[-73.57194250895233,45.660730907051416],[-73.57663817916249,45.657206813347386],[-73.58007322570434,45.655426392621905],[-73.58182277829061,45.655002229280996],[-73.58425396245968,45.653097318315865],[-73.58952912972116,45.650196739627724],[-73.59168823353453,45.648500641738686],[-73.59252050739705,45.64827321434516],[-73.59559480750944,45.64545151288405],[-73.59611761400336,45.64509383492213],[-73.5963887328399,45.64534016084677],[-73.59806880118958,45.64430302341067],[-73.60088332838434,45.64139141823155],[-73.60500719286324,45.63845244789301],[-73.60757049961916,45.63731627890555],[-73.61040473050093,45.63506938913234],[-73.61145630335574,45.63561006273079],[-73.60864394261692,45.63788753746222],[-73.61140714244007,45.63734407812405],[-73.61413333899307,45.63566048629044],[-73.61443403701362,45.635302058043784],[-73.61401727305778,45.634715788922676],[-73.61230130327976,45.634821882050566],[-73.61160747511273,45.635519027842825],[-73.61078909420793,45.634849456906956],[-73.61645173320274,45.6315927243752],[-73.617734675469,45.63176687485165],[-73.61928698512669,45.63132884173496],[-73.61946037059175,45.63083374923034],[-73.6205327366801,45.630296331926225],[-73.62119105398173,45.6292662256341],[-73.62360919315758,45.62717692358731],[-73.63010201092014,45.6225490659729],[-73.63380408515752,45.619244209344494],[-73.63579950268053,45.61610863624703],[-73.63872155083546,45.610020678212706],[-73.64174538316372,45.606307572438375],[-73.64187845669659,45.60465011771273],[-73.64283498798741,45.602841072844676],[-73.6427959979684,45.601817001166715],[-73.64456930676918,45.59837833840565],[-73.64476333135217,45.598558058300576],[-73.64503712112385,45.598358848164665],[-73.64560138850234,45.596975984739046],[-73.64895879668346,45.59423345373795],[-73.65019691172587,45.59182298025183],[-73.65118827323236,45.59110270118817],[-73.65139973523861,45.591575732128334],[-73.65136862389741,45.590492375527425],[-73.65275169801802,45.58914617279633],[-73.6535356290748,45.587113299565964],[-73.6535063865003,45.58484935700743],[-73.65526936413072,45.58193353631783],[-73.65927111111094,45.57935274035528],[-73.66022719817646,45.57828199057063],[-73.65997503116829,45.577923310003904],[-73.6608079844978,45.577503718977304],[-73.66046867232482,45.576240833690434],[-73.66112168728364,45.57563702739199],[-73.66202033382524,45.57139271486428],[-73.66253349637448,45.5707391680905],[-73.66251133627735,45.568836053812596],[-73.663736021276,45.56808015467854],[-73.66333412757497,45.56665516927412],[-73.66400102714225,45.56482017321131],[-73.6651258626343,45.56394080226063],[-73.66700245489838,45.563600116058744],[-73.67090505580437,45.560916762137],[-73.67300969544209,45.558234193963834],[-73.67446590717556,45.55484844723865],[-73.67913495981853,45.550068621297015],[-73.67954973224904,45.54924992915914],[-73.67923470742781,45.54875552322367],[-73.67994778512585,45.54947426176504],[-73.6847551413023,45.54878587116197],[-73.68625871513137,45.5491865467754],[-73.68912553347386,45.547732938891805],[-73.69246630486307,45.547227446160015],[-73.69492854743493,45.54745991008602],[-73.6977466382122,45.54689653806991],[-73.69838199420975,45.547099816228595],[-73.69595543100857,45.547728634844866],[-73.69588803768804,45.54814397059821],[-73.69893805021115,45.54772287654486],[-73.69934860955736,45.54715532724143],[-73.69852847954802,45.54685764084047],[-73.6996265978595,45.546481080377134],[-73.70047486860707,45.54661726076894],[-73.7012581759427,45.54592187576462],[-73.70233106198985,45.54576165422796],[-73.70272559855862,45.54508156929049],[-73.70233191891094,45.54493290338892],[-73.70249250363446,45.54468280623803],[-73.70340017199143,45.54476933267977],[-73.7050480230526,45.54392696513708],[-73.70563142502154,45.54412478033611],[-73.707001060154,45.543600230449755],[-73.70944035788935,45.540742986133765],[-73.71027291791985,45.54149192074597],[-73.70958721105855,45.54063383644056],[-73.71142951311543,45.53883614777515],[-73.71586401801328,45.53689315815613],[-73.71578657943344,45.535614752038825],[-73.71616986076818,45.535446090937945],[-73.71565202445588,45.53525953387181],[-73.71574038994925,45.53498030078682],[-73.71695828849457,45.535313561714574],[-73.7161793453927,45.53591613892084],[-73.71661344283923,45.53652734146422],[-73.71643806546537,45.537075261213026],[-73.71694208944596,45.53721415783828],[-73.72115911650425,45.53670303494582],[-73.7228539081268,45.53593216148389],[-73.72616857848183,45.53362473380767],[-73.72657314601221,45.532027609706],[-73.72817864676166,45.53170856211197],[-73.72860328982713,45.53066029185645],[-73.73099764132614,45.52946407070956],[-73.73265853614966,45.529562372383594],[-73.73480869307099,45.52725257558415],[-73.7367357608104,45.52581243597966],[-73.73748135672425,45.5256354196536],[-73.73859662205116,45.52599483290522],[-73.73950865503636,45.52552049974648],[-73.74004538412898,45.52380066825339],[-73.74167639500966,45.52323302125448],[-73.74251436047216,45.520736880050904],[-73.74375759050079,45.51932597477989],[-73.74634639435857,45.51770518957207],[-73.74674147296986,45.51702224825427],[-73.74729089749177,45.517383694303895],[-73.74684847941712,45.51778058118273],[-73.74801383529855,45.51761788705236],[-73.75021714952815,45.51599424924519],[-73.75105626302286,45.51330098183523],[-73.752398548029,45.512602896250726],[-73.75279861667207,45.51267860796552],[-73.75303342099977,45.51207281713489],[-73.75345664899208,45.512196272750195],[-73.7560353023099,45.51134060440419],[-73.75647848878168,45.51027592495957],[-73.75680117832478,45.51009206367128],[-73.7573349044409,45.510022897682916],[-73.75746236207668,45.510489089380194],[-73.75708505080338,45.510729522095986],[-73.75745604803605,45.510718319461475],[-73.75751268751658,45.510209089045695],[-73.75832231843883,45.5095806822468],[-73.75931155400244,45.509360165466965],[-73.75948252726327,45.50860650205996],[-73.75825924762697,45.5090458054112],[-73.75796183823556,45.50847448442548],[-73.75631532423002,45.50860663362538],[-73.75741649626733,45.507614746068946],[-73.75938399404166,45.50711789087679],[-73.75939097231966,45.50738624602899],[-73.75777196641742,45.50761567121952],[-73.757624176013,45.50807211664314],[-73.75824692110989,45.508717841218456],[-73.75966453974752,45.50841482803338],[-73.75970606833452,45.509246916357796],[-73.75844119454149,45.509730668978655],[-73.75850557593627,45.510193546533365],[-73.75792740391776,45.510215585435375],[-73.7582824948836,45.51066168120162],[-73.75714176393947,45.51107603130671],[-73.75678397605756,45.511648128083046],[-73.75516841934518,45.51179796383079],[-73.75536264944829,45.512542166399996],[-73.75699243630731,45.51266289649381],[-73.76132694394471,45.510322949011886],[-73.76706350993288,45.5094815388532],[-73.77094889468557,45.509427449634096],[-73.77555179902215,45.508380946015755],[-73.78266746148005,45.50898205848568],[-73.78361901272865,45.50959131358042],[-73.78531485404619,45.50934290061064],[-73.78601267016894,45.50966020187819],[-73.78832797686546,45.50903519056789],[-73.79065963426041,45.50886518766728],[-73.79703577465935,45.5094066790366],[-73.79782016847865,45.51010653113018],[-73.7990891701931,45.5104811492335],[-73.80016183775436,45.514806664326834],[-73.80281248163209,45.51503362729645],[-73.80570378412664,45.51479195867307],[-73.80648874788213,45.51556373637084],[-73.80846348868636,45.51622431223258],[-73.81021738321117,45.51629154993618],[-73.8131056857213,45.5155097886369],[-73.81604907029853,45.51542968684346],[-73.81776815914488,45.51387716181545],[-73.81790541277016,45.51325588043746],[-73.81933520674845,45.512612987182635],[-73.82353703189152,45.513276053633575],[-73.82456666507677,45.51426297604599],[-73.8233084202033,45.513582655841475],[-73.82159422155684,45.513731469345934],[-73.82336264160841,45.51410441925212],[-73.82502194069141,45.5155214792679],[-73.82672450370009,45.5155616143292],[-73.82812562621966,45.516583425991456],[-73.82974062439779,45.51696571599125],[-73.83136540837623,45.51683502777387],[-73.83211775875402,45.516355918263685],[-73.83597119190355,45.51647962587353],[-73.83791898421688,45.516851813773144],[-73.84095237822307,45.51682480325723],[-73.8416068504984,45.517101798672556],[-73.8459041346259,45.5165399549664],[-73.84707643378955,45.515690537353684],[-73.84863871197236,45.51375109439219],[-73.8487571758455,45.51222098426568],[-73.8497260948599,45.511615119090436],[-73.85096607161327,45.51137735715393],[-73.85414979499474,45.50885694491934],[-73.85441415929697,45.508163237534355],[-73.8557802570476,45.507646069631456],[-73.85708366214442,45.505329380353984],[-73.85701378193667,45.50440274289662],[-73.85801478450297,45.50284286363795],[-73.85800955077127,45.50202401375806],[-73.85914241991428,45.501084611514266],[-73.85810888318058,45.499540107524176],[-73.85562763670217,45.49972783684069],[-73.85490684556093,45.49905518689532],[-73.85448927429721,45.49776070810911],[-73.85314748920443,45.4959921622137],[-73.8543878625424,45.493828684987996],[-73.85699442341394,45.49123800472826],[-73.85785574108127,45.48986753163833],[-73.85918067251195,45.48898151586746],[-73.86428736516976,45.48731861783699],[-73.86593991246721,45.487664275563034],[-73.86904959658497,45.48584557206688],[-73.86881234595691,45.484775512666445],[-73.86940994325633,45.484215676944466],[-73.86925098267736,45.485340998659815],[-73.86983755580873,45.48505115024644],[-73.86962570116957,45.48395402355524],[-73.87068166342108,45.48306874346313],[-73.87078495005566,45.4812597253299],[-73.8714772205883,45.48149143626297],[-73.87340109217922,45.48032436108704],[-73.87455758582642,45.47918676752241],[-73.87537050861744,45.47639457234752],[-73.87616942152768,45.47535711943001],[-73.87583109178757,45.474485380774595],[-73.87639114799273,45.474078605159164],[-73.87713350441219,45.47415714290819],[-73.87706272737488,45.47313154988138],[-73.87758439309525,45.47272489503714],[-73.87995800038635,45.47193415634819],[-73.88063529690602,45.47185091507521],[-73.88149448087728,45.472189991133675],[-73.8823605748061,45.47165618480639],[-73.88288634437501,45.47186138874854],[-73.88430472011883,45.469786974196296],[-73.88478965127815,45.46963236739995],[-73.88542016137426,45.470197146289244],[-73.88560924513247,45.46979157628178],[-73.88753525102598,45.469038192589956],[-73.88735442372052,45.46877784980614],[-73.88772437746479,45.468641617339905],[-73.89008989726119,45.46857957252461],[-73.89123770839429,45.4681167240174],[-73.89195586787416,45.46655753203123],[-73.89362121297954,45.46696573600635],[-73.89453820122635,45.46642266295184],[-73.89645534793434,45.466263059459905],[-73.89640014742439,45.46568734754408],[-73.89752510610349,45.46562944709543],[-73.89976769394595,45.46267013173912],[-73.90054529848639,45.46232546472459],[-73.90181493392377,45.46284292719846],[-73.90224732907019,45.462508460932696],[-73.90208889507235,45.461807135892656],[-73.90383229817164,45.46062219092609],[-73.90750463960529,45.460960099043916],[-73.90821395996953,45.46179442676689],[-73.90785865192271,45.46217363293311],[-73.90910827409259,45.4616832540147],[-73.91013143162934,45.461706580412944],[-73.91045820971746,45.460922537170404],[-73.9123463890827,45.46033084282647],[-73.91405309776285,45.46115253103358],[-73.91460788654167,45.46182540610633],[-73.91782022436865,45.46219165555416],[-73.9191188004765,45.46314074771786],[-73.92168036328766,45.467108663131064],[-73.92122011436709,45.468847069710144],[-73.92235735964672,45.468716909089956],[-73.92291211990849,45.469362747600215],[-73.92228173691892,45.47057987103819],[-73.92486435593123,45.47217203314027],[-73.92592806349226,45.47415674487686],[-73.92752354256335,45.473718866257286],[-73.92893183999776,45.4739025723046],[-73.9306408735983,45.47326625707176],[-73.93135812502622,45.47339852795353],[-73.93154673949599,45.47297489569173],[-73.93254067566865,45.472494216735264],[-73.93450319837292,45.473233659967796],[-73.93568529157011,45.47227533139828],[-73.93826212522409,45.47141063534007],[-73.94036410492147,45.46870301401629],[-73.93935359869512,45.46867990099665],[-73.93950195453223,45.468022440570934],[-73.94019022128899,45.46772284890897],[-73.9391969234287,45.46661984927453],[-73.94067845553998,45.4663711926988],[-73.94118618008447,45.4658833141912],[-73.9419431316208,45.466195344063124],[-73.9426849362111,45.46457274271046],[-73.94328326717813,45.464228479471494],[-73.94457445194672,45.46417847769332],[-73.94475752078334,45.464690679261494],[-73.94558721883864,45.46449848606506],[-73.94528346081728,45.46327586633593],[-73.94576293250543,45.4624551329146],[-73.94482862114555,45.46235079324542],[-73.94452449193398,45.462702909857846],[-73.9435275841805,45.46276977459877],[-73.94220845210712,45.462513923823],[-73.94177692327116,45.46129178893005],[-73.94341244474728,45.45950374837358],[-73.94425501159108,45.459329511722494],[-73.9447440152604,45.45972354293194],[-73.94635951800733,45.45865542679998],[-73.94667029257965,45.459149138468035],[-73.94739862210253,45.4590832985343],[-73.94707101610223,45.45969647945833],[-73.94752712492186,45.45916378167394],[-73.94753578238901,45.458641834519305],[-73.94646514827855,45.45745821276493],[-73.94559569781414,45.45746159904046],[-73.94571509492911,45.458010042063144],[-73.9448597663373,45.458184348017674],[-73.94448161924339,45.45724996672142],[-73.9432583413725,45.45615689359192],[-73.94135137197412,45.45592130928907],[-73.94032984896187,45.45609621463359],[-73.93849026143792,45.45465451371215],[-73.93843507634121,45.45413281190805],[-73.93881709440218,45.45393337769617],[-73.93850836987676,45.45369160348297],[-73.9363214131709,45.45360997555958],[-73.9361852960879,45.45253967237539],[-73.93731661466185,45.45168948628764],[-73.93686671098881,45.451376259845375],[-73.93731985946275,45.450456677146924],[-73.93704895710472,45.45014276589211],[-73.93763592995704,45.44999654220989],[-73.93793379610065,45.45049031905081],[-73.93819843383181,45.44999438566806],[-73.93985265087422,45.44898920963305],[-73.9413586551656,45.44865946249823],[-73.94333006217201,45.4489937805898],[-73.94483370533807,45.449995777618746],[-73.94530262513125,45.4494720364352],[-73.94699341370611,45.44987937304499],[-73.94739270983638,45.45025574753961],[-73.94805727563363,45.4502261558804],[-73.94811070514432,45.45051389884451],[-73.95004249017246,45.44906654982123],[-73.95104101322644,45.44923359194725],[-73.95176619289883,45.44878979864397],[-73.95169904149836,45.44838513079774],[-73.95005999657194,45.44804964804402],[-73.94959527910176,45.44748457129073],[-73.95001292860901,45.44695201380189],[-73.95136597944479,45.446694725269836],[-73.95122277925543,45.44637134419857],[-73.95210505757109,45.44639485107526],[-73.95147594616117,45.446055395483505],[-73.95185464333284,45.4454509968767],[-73.95524089345624,45.44527559526343],[-73.95697634489319,45.44647447652173],[-73.95853286402536,45.44609030952727],[-73.96043802128715,45.446136645647286],[-73.9604459122501,45.445533712675235],[-73.95857584377207,45.44508229337626],[-73.95783007304226,45.44454537340916],[-73.95835612284272,45.44320248304315],[-73.9601833896374,45.44311414923188],[-73.96130344194071,45.442515728336225],[-73.96261953171543,45.44244742467873],[-73.96357168020067,45.44164269515309],[-73.96463666897327,45.442133287190266],[-73.96595902197143,45.44127304001274],[-73.96712895583957,45.442087145382594],[-73.96712104951672,45.44268108072026],[-73.9676314564284,45.44257100989696],[-73.96818817823203,45.441875842463936],[-73.96720018709041,45.439873197464266],[-73.96729652441837,45.439152911803724],[-73.96796911837762,45.43856525335734],[-73.96903214844852,45.4388218507655],[-73.96998937403961,45.43864695272886],[-73.9714556735284,45.43667021263672],[-73.97149601523327,45.436913006678814],[-73.97200308569505,45.436406994235085],[-73.97223697249683,45.43686496181001],[-73.97254289399748,45.43676471268743],[-73.97341830056972,45.43291867503717],[-73.97442627060119,45.43118675432067],[-73.97418500570976,45.42984696355374],[-73.97511695738713,45.42972610968626],[-73.97454014393875,45.42952154086155],[-73.97523335019639,45.42836683542329],[-73.97527092412753,45.42674692182568],[-73.97469967896173,45.42567846036314],[-73.97071944262318,45.42496604065083],[-73.9700437605598,45.42361902178821],[-73.97075800641332,45.421915343447615],[-73.9706489306929,45.421087916336226],[-73.96866748206074,45.41944030130003],[-73.96902256240976,45.4191148954062],[-73.96845746565069,45.41876627030742],[-73.96856511609792,45.41787496170998],[-73.96733471591548,45.418968837993326],[-73.96630328752555,45.417848223592216],[-73.96470600558581,45.417836736081455],[-73.96387738119579,45.41650830715226],[-73.96474946774052,45.41534393754304],[-73.96546420184478,45.41525104144257],[-73.96569980196027,45.414377210672704],[-73.9653563994964,45.414567580320856],[-73.96461169428007,45.41412068321442],[-73.96370939341831,45.41315250372453],[-73.96312457408786,45.41350582090113],[-73.96206166695353,45.413204174051565],[-73.96050854126882,45.41074481840123],[-73.95698604050986,45.40802337928265],[-73.95684232748023,45.40762801645215],[-73.95777364377277,45.40588754302396],[-73.9566797168115,45.404884080111636],[-73.9512991466157,45.402961761665466],[-73.947409415981,45.402149193636795],[-73.94647936990256,45.40245878505045],[-73.94411414012883,45.40227885981731],[-73.94051683550184,45.40283289908384],[-73.93924127003407,45.40307177482619],[-73.9384540978148,45.403695710792476],[-73.9365172470798,45.40432404075421],[-73.93521492091385,45.40440999771075],[-73.93498202129675,45.40402394552157],[-73.93507426989291,45.40439253636452],[-73.93458746953151,45.40421441777809],[-73.93323679856007,45.404660488477155],[-73.9315365352658,45.40449595165461],[-73.93129083045686,45.40410094173512],[-73.9290620273167,45.403299462624375],[-73.9279662657334,45.40367251572559],[-73.92800064604573,45.40315046862419],[-73.92778668627324,45.40357420393802],[-73.9276047993896,45.403169948405264],[-73.9271959628861,45.40316247962389],[-73.92729971212655,45.403369059145696],[-73.92692785219874,45.403181479245504],[-73.92642095610643,45.40372329700307],[-73.92552759116836,45.40383461178122],[-73.92498866330683,45.40351266900587],[-73.92417139003835,45.40355170131176],[-73.9234648688703,45.40302340597927],[-73.92346028436815,45.40412125982973],[-73.92276967840803,45.40401583499053],[-73.92282584048958,45.40298078037166],[-73.92262695215317,45.40371940969898],[-73.92133531787965,45.403526212538324],[-73.9201921953363,45.40441230292192],[-73.91998661571144,45.40597883091807],[-73.91884833153217,45.407530793747696],[-73.91739319170883,45.40769810374765],[-73.91677610324182,45.40716943179317],[-73.91671433531728,45.40745762065623],[-73.91515923483894,45.40793121869419],[-73.91443730200005,45.408788714582336],[-73.90864048338305,45.41101429656299],[-73.90583383383017,45.41158223257235],[-73.90043992541236,45.41124134435051],[-73.89697474931367,45.41265724439816],[-73.89604956167618,45.41373130412316],[-73.89505559263706,45.41424564379176],[-73.89207913136386,45.414176951134394],[-73.88950330533005,45.414914657050936],[-73.8861899755809,45.4143050148476],[-73.88452327777284,45.415345491254165],[-73.88221404226152,45.415848172014584],[-73.88088766395714,45.41430483070904],[-73.87903562933575,45.41439197866727],[-73.8783247740491,45.41508723422439],[-73.87864052331925,45.41645398832078],[-73.87772477519535,45.41708692014327],[-73.87657616224723,45.41728868124165],[-73.87555105105605,45.418776828673685],[-73.87366716487749,45.4198718335181],[-73.87286442170866,45.42021640221248],[-73.87175146230005,45.42002206147816],[-73.87046215619,45.42021522023368],[-73.87015930412336,45.42080110869352],[-73.8691395973521,45.42119134686318],[-73.86450458050113,45.42172814857652],[-73.86306761751834,45.42282155092829],[-73.86228648052455,45.42256306414184],[-73.86262205244778,45.42308392454368],[-73.86124348395738,45.423322246478286],[-73.86133510074255,45.423663901915845],[-73.8609245879268,45.42341324016259],[-73.86135023281572,45.42403280370822],[-73.85990900127369,45.42446927597008],[-73.85548980949258,45.424834049924065],[-73.85265280007363,45.42687651746598],[-73.85199033784934,45.427211507275175],[-73.85112035017669,45.42705220217085],[-73.85162063586776,45.42735662278404],[-73.8509721742603,45.427889531693836],[-73.84590952902164,45.42966867356068],[-73.84528358406578,45.42971556016589],[-73.84037965076465,45.42818249314412],[-73.83988842939598,45.427248097746904],[-73.83693183142282,45.426482964121],[-73.83664508932597,45.425538961388774],[-73.83629968737056,45.42547698017784],[-73.83474390564064,45.426030461975465],[-73.834644798701,45.42656166704474],[-73.83371357209056,45.42684334663604],[-73.83398315385148,45.42704952542609],[-73.83347695573212,45.427896868269414],[-73.83294138697184,45.42809639873073],[-73.8305672558161,45.428589207143006],[-73.82738229671071,45.42810343346216],[-73.82620171962759,45.427260938442785],[-73.82631797489671,45.4252539201215],[-73.82530654049876,45.42492384979914],[-73.82532612932134,45.42611161203531],[-73.8235926641602,45.42689940138926],[-73.82171208652169,45.42654476262168],[-73.82082131202716,45.42721316091393],[-73.82103922168088,45.42732952983848],[-73.82050468354272,45.42771796868674],[-73.82213419651404,45.42886521679108],[-73.81811761273552,45.430478206514344],[-73.81774911486632,45.43085717115522],[-73.8185688595012,45.4311788442935],[-73.81838210361404,45.4320612224217],[-73.81667426041255,45.43291183310717],[-73.81598546921568,45.43315670128408],[-73.8147952889944,45.432872025386565],[-73.81257322136412,45.43319306786365],[-73.81133197231573,45.43291749416243],[-73.80999474818402,45.4337849823683],[-73.80712022395306,45.433999696269076],[-73.80592388901795,45.43493874606269],[-73.80523294042457,45.434796617879336],[-73.80430865022979,45.43404319784986],[-73.80359297531771,45.434054100797354],[-73.80256369509543,45.43517264204368],[-73.80368056732684,45.43608752909998],[-73.80395475785923,45.437166624249315],[-73.80328553440198,45.438698136482],[-73.80366156490108,45.439695974605385],[-73.80245773880692,45.44166083946994],[-73.8027696685691,45.44262285561607],[-73.80108799878532,45.44368911810094],[-73.7987263941016,45.44430720082314],[-73.79796400338861,45.44518204895753],[-73.79798048187286,45.445883881973316],[-73.79580035551903,45.44700535634798],[-73.7956239687908,45.44750073159685],[-73.79232925676382,45.44818408239421],[-73.78924765269933,45.448056940774705],[-73.78745480368634,45.4474495585389],[-73.78557683328854,45.447697220351564],[-73.78082704142481,45.44629620252706],[-73.77880224318614,45.445284320796],[-73.77573578369095,45.44297912578555],[-73.77436293650749,45.43929302560195],[-73.77353238048912,45.43934899994253],[-73.77221883224931,45.43997303661721],[-73.77242480641328,45.440278495619644],[-73.77210625838309,45.440486221114185],[-73.76943649104506,45.440852482231854],[-73.76674607446472,45.43955399217266],[-73.7652572428886,45.43825266320402],[-73.76415245110826,45.43980297109444],[-73.75868052437684,45.43915173819218],[-73.75709136743646,45.4382913174435],[-73.75503346825325,45.43617774221248],[-73.75416945381586,45.437227813007574],[-73.75304346566371,45.43787418275447],[-73.75039535896397,45.4372914404144],[-73.74923790916885,45.43637596295333],[-73.74941448954067,45.4359793606787],[-73.74900888237487,45.43563584943018],[-73.74785549011047,45.43606643002369],[-73.74724933941748,45.43700186912709],[-73.74643312480562,45.4370416482708],[-73.74470660982779,45.438068178894476],[-73.74191565916156,45.437737803673514],[-73.7400645691909,45.437959405057285],[-73.73987096015215,45.438206181818785],[-73.73873027581637,45.43769622627942],[-73.73823076840748,45.43796448344966],[-73.73692323840454,45.43789465229683],[-73.73612101636725,45.43737453901332],[-73.73496512415444,45.437173058291876],[-73.73361215721455,45.43798095619362],[-73.73336336941674,45.43755875330725],[-73.73091431856804,45.436398112537994],[-73.73018309957183,45.436422629583554],[-73.7279666804329,45.43693504366701],[-73.72690639432025,45.4377226988292],[-73.7267727798811,45.437449985184735],[-73.72644436384418,45.437561220278674],[-73.72654434372268,45.438011379348545],[-73.7243164114599,45.43823914030212],[-73.72440683043645,45.43892644536432],[-73.72531467877282,45.438907891403716],[-73.72438084074001,45.43907652761778],[-73.72307142015212,45.438428895568755],[-73.72110602045073,45.438632292768375],[-73.71576921666724,45.43783254263542],[-73.7141616839716,45.437382433699774],[-73.7132809450496,45.43659481161098],[-73.71230731703955,45.43632999104738],[-73.71036736564979,45.436080962203036],[-73.70870939421964,45.436235493654316],[-73.7052327490968,45.43499384362823],[-73.7033767609019,45.435240220477034],[-73.69886311277016,45.43450597288276],[-73.69512776012067,45.43339360816687],[-73.69420438162454,45.432475748770756],[-73.69495381131969,45.432167221111264],[-73.69266053949939,45.43249824959071],[-73.69279951575948,45.43283722674989],[-73.69189491213847,45.432858627678684],[-73.69186772115167,45.43231876081084],[-73.69135393925332,45.43229082557749],[-73.69167530661112,45.43286418110536],[-73.69092528954498,45.43300654032003],[-73.69083433199268,45.43235073901],[-73.69037997741651,45.43223890116539],[-73.69069523161521,45.43294760806646],[-73.68938347761781,45.43290747798657],[-73.6863934428681,45.433811433147255],[-73.68578605913085,45.432935319746626],[-73.68537527132395,45.43338462244056],[-73.68433067405785,45.433126585505356],[-73.68472964708279,45.43256010491496],[-73.68431551161616,45.43223769636199],[-73.68314917695244,45.43312399555071],[-73.68072520274055,45.43279316165781],[-73.67743576686964,45.4317619924647],[-73.67317511046912,45.43136503814704],[-73.66930936790463,45.431450730761846],[-73.66913763760621,45.43119153886938],[-73.66906577902331,45.43073360701608],[-73.67333992480332,45.42930160788947],[-73.6787643705304,45.43039404023675],[-73.68217735717344,45.43069270906236],[-73.68219029540427,45.43090087644774],[-73.68342023925364,45.430699059501],[-73.68290926787984,45.430269961043535],[-73.67877281537727,45.43021866082617],[-73.67672574719042,45.42917843670625],[-73.67322840517932,45.429209339841314],[-73.66665740447871,45.43125566106728],[-73.66624886862081,45.43098702943853],[-73.66887069279504,45.430268748124675],[-73.66952236622222,45.42977076253482],[-73.67254178183619,45.42876108439133],[-73.67468510878783,45.42838976496203],[-73.68086009374626,45.42924926145222],[-73.68707350300954,45.42904983666795],[-73.69136920899678,45.430312939260546],[-73.6916900987175,45.42996684472038],[-73.68808177584577,45.42902979715131],[-73.68754448123484,45.428483570605394],[-73.67802044563557,45.42779543020918],[-73.67319397091214,45.42805820176757],[-73.66949362383707,45.42913280467501],[-73.66800713152752,45.42907201969983],[-73.66633254412356,45.428551772585834],[-73.66458068474981,45.427704738163214],[-73.66386412310551,45.426950795254186],[-73.66266612035854,45.42675273800125],[-73.66030349073023,45.42550078009597],[-73.65313280772736,45.421132829284126],[-73.64952124088441,45.419986703267256],[-73.64407682391122,45.41656795376495],[-73.63994724758622,45.41551935035011],[-73.63266649572085,45.41585472890818],[-73.63261413336913,45.4147641525585],[-73.6324578655179,45.41514136868675],[-73.63237007662087,45.414757229761385],[-73.62964070634216,45.414634397710884],[-73.62899128491696,45.41504007738047],[-73.6258025237786,45.415175914615666],[-73.62123147755753,45.414798427117454],[-73.62019176817064,45.41494531325844],[-73.61927678876945,45.415471801137166],[-73.61667343636321,45.41574445583346],[-73.61641595690368,45.416049764739356],[-73.61496383109196,45.41572278775251],[-73.61139577426472,45.4159864029045],[-73.60809469237395,45.417572434774016],[-73.60467482360716,45.41859247533367],[-73.60278549256817,45.419548047583106],[-73.59704270022804,45.4244582256434],[-73.59387178883635,45.427711022552344],[-73.59189226208356,45.426565712457325],[-73.591784093424,45.42618425731828],[-73.5962072821842,45.42258924501394],[-73.59295956447565,45.4250582679289],[-73.59110377961224,45.42603074568323],[-73.5881129907048,45.42873699805808],[-73.59015685577651,45.4279236532082],[-73.59024680785053,45.42739634097944],[-73.591753475061,45.4267276485582],[-73.59311969836502,45.42769089931021],[-73.59249569139762,45.428710483182364],[-73.5918770505391,45.42877433259095],[-73.59211885915654,45.42934457895973],[-73.58902152434786,45.431792336762086],[-73.58636410909307,45.43311359481102],[-73.58402637398596,45.434849358763735],[-73.57193037190746,45.4447948410662],[-73.5688884931009,45.44732084502911],[-73.56556807309282,45.451295696525584],[-73.56060138600742,45.458559408181124],[-73.55957455232414,45.468050669659114],[-73.55890505968168,45.46866202631252],[-73.5569860385726,45.46922631017913],[-73.55628689532165,45.46979088985526],[-73.55964352121022,45.47125282826188],[-73.55649903822032,45.469940806703896],[-73.55311881625889,45.47072464625758],[-73.54496620092664,45.47457233774701],[-73.54105679795731,45.4770475112094],[-73.53994296484042,45.477371851081],[-73.5387411556986,45.47991793097138],[-73.53721715886698,45.48529685568815],[-73.5376155276004,45.48653751053844],[-73.54029073377608,45.489843767306425],[-73.54153475375614,45.49235367817011],[-73.54290616899699,45.498664124160406],[-73.54276570334596,45.50808625118529],[-73.54335167141898,45.507888963538704],[-73.54451362742913,45.50307700355795],[-73.54542549124668,45.494758428944124],[-73.54658731545288,45.49482813833122],[-73.54598004723829,45.49993143531797],[-73.54793792297113,45.50006199970137],[-73.54888309303027,45.49154074264287],[-73.5498561900719,45.49146401101353],[-73.54930253541208,45.499276735958134],[-73.54938856242234,45.499597944719284],[-73.5505351537071,45.499690125357155],[-73.55102728849756,45.49826136959489],[-73.55062326458494,45.49821460633673],[-73.55085359055205,45.49671002476226],[-73.55138753434682,45.49672096356121],[-73.5528363880032,45.49226463173362],[-73.55203258889604,45.49155205384365],[-73.5523091788367,45.49085906451882],[-73.55469187841234,45.49083864671254],[-73.55499084859792,45.48930084016432],[-73.55498005409588,45.49079042290876],[-73.55556105243787,45.49083448376064],[-73.56406383432517,45.48618104744883],[-73.56354592289395,45.4852427861685],[-73.56381611866041,45.48547839690446],[-73.56523145043104,45.48479910574636],[-73.5638661231822,45.48558544972974],[-73.56438088216134,45.48600808827517],[-73.56561462863155,45.485373886923355],[-73.57293281630061,45.48014400479772],[-73.57397231264714,45.47884395852504],[-73.57719587286842,45.47620705308176],[-73.58191622551072,45.47074380329852],[-73.58218509364946,45.471014865169785],[-73.58454830327999,45.468950519481815],[-73.59010740687185,45.46669663041572],[-73.59137363013569,45.46648263982978],[-73.59039210238721,45.466864072618186],[-73.59148340309257,45.46669021141286],[-73.59196577620767,45.466506462299385],[-73.59172897205804,45.46637797608095],[-73.59419308008427,45.46577564674547],[-73.59842287362613,45.463047418113945],[-73.6024014650921,45.46124271900888],[-73.61341622009317,45.45757857123257],[-73.62011281049445,45.45460036511464],[-73.62491356575536,45.45146797914833],[-73.62852625087518,45.44818881952623],[-73.63125436703042,45.446525244552134],[-73.64676903277976,45.44037762099097],[-73.65368988737693,45.43662808169382],[-73.65896846133236,45.43455418161329],[-73.66546221903654,45.431293876118595],[-73.66524615087909,45.43199719134351],[-73.66600894755437,45.43201163061605],[-73.65399642042556,45.437006995780095],[-73.6464141965494,45.44101938854743],[-73.63130983070013,45.44700805156381],[-73.62910326165908,45.448402859032115],[-73.62636199477642,45.451039167582586],[-73.62036301057395,45.455008637475096],[-73.61396490616345,45.45782051015501],[-73.60313094233865,45.46144872057829],[-73.5984966907933,45.46357196488934],[-73.59469359488934,45.46586801226728],[-73.59058291321347,45.4670258942401],[-73.58564866514514,45.46922085814974],[-73.58323517804108,45.47080278111997],[-73.57709010840139,45.477091457266795],[-73.56969783266561,45.4831803259129],[-73.5673260323651,45.48493339455906],[-73.56386030662578,45.486850390857896],[-73.56644183899486,45.486674125224454],[-73.56344777658293,45.48715361122114],[-73.55629576989499,45.491122056840126],[-73.55295224328586,45.49116716284131],[-73.55223313390833,45.491473463156865],[-73.55327791200396,45.49258495239718],[-73.55222083913077,45.495650250074945],[-73.55211580506959,45.49667855009486],[-73.55246865144981,45.496752454345184],[-73.55187481802677,45.49905556128909],[-73.55278812804202,45.50197922541429],[-73.54825212270651,45.50231599251458],[-73.54796114521245,45.50320246927232],[-73.5527544819779,45.50290969105307],[-73.55263348179547,45.50350454836896],[-73.54989896797633,45.503656960641266],[-73.55260287209747,45.50361974500249],[-73.55242827000315,45.504363105159],[-73.54748384416854,45.504700023935285],[-73.54728114859564,45.505602661661236],[-73.55213224611033,45.50528738529566],[-73.55122503915064,45.50677255351672],[-73.5468100827246,45.50694903852977],[-73.54631880417206,45.5086229630068],[-73.5466323321536,45.50853993177626],[-73.54649277151597,45.50924173149576],[-73.54722952216324,45.50924850101567],[-73.54648080350385,45.50927827048052],[-73.54558092845097,45.51238373318096],[-73.5462033560894,45.51286309909002],[-73.54788018695638,45.5101547594219],[-73.54920609954543,45.510157785671886],[-73.5466820484793,45.514375556245554],[-73.54005610714609,45.53576655589428],[-73.53466398581037,45.54138695818924],[-73.53146820813039,45.54211766007984],[-73.5315172930021,45.54285912106757],[-73.53359918899665,45.542419398408555],[-73.5337633526214,45.542826076196846],[-73.53193625173088,45.54325853214709],[-73.53243726004209,45.54380009267079],[-73.52943720399175,45.544427209384],[-73.52914054301193,45.54525333526737],[-73.5323635012291,45.54467116435435],[-73.53133200898932,45.54591503471901],[-73.52760322865639,45.54672766684531],[-73.52780837960267,45.54722972564722],[-73.52900441639623,45.54703056441029],[-73.52248254107067,45.5548120296461],[-73.51859539756457,45.55860418113138],[-73.5191168286536,45.5588497502429],[-73.52094151698019,45.55710014336168],[-73.52178961099762,45.55751480820005],[-73.5219024381606,45.557833328214784],[-73.52095495398397,45.55885751669484],[-73.52148020318637,45.5591102723216],[-73.52068077348255,45.5603354639497],[-73.52368160652483,45.55680986961085],[-73.52417207248403,45.55653171888723],[-73.52534560223505,45.55716313914502],[-73.51802702706627,45.566148701765556],[-73.5201422757769,45.56664774691598],[-73.5190038984957,45.568277540105115],[-73.51411956704285,45.570869774609115],[-73.50916652005628,45.5757731836041],[-73.50585594692967,45.58060703447396],[-73.50467249117686,45.58395243512862],[-73.50548448691193,45.58421107824636],[-73.50383674889618,45.58771416835745],[-73.50523326074531,45.59140364606961],[-73.50616635626898,45.591729330589345],[-73.50777992570985,45.59457651352247],[-73.50953961529277,45.6006863225057],[-73.50884426804521,45.60590563523601],[-73.50710023995542,45.610327072421406],[-73.50802341065535,45.61077511412634],[-73.5064360527195,45.61095708663339],[-73.50426846291965,45.61653792533648],[-73.50175159231465,45.62024171085198],[-73.49890737308792,45.62288092825679],[-73.50082448319563,45.62142589547402],[-73.5012476878662,45.62167514471787],[-73.5008258146411,45.6234055173584],[-73.49982682452558,45.624254061194264],[-73.49779934785823,45.62466707156365],[-73.49972681083956,45.62440163562305],[-73.50009229922479,45.62471387652865],[-73.49884704493292,45.62611850076102],[-73.4979057402888,45.62556330325345],[-73.49658865962729,45.62597089864171],[-73.49479312649208,45.62763552186456],[-73.4958152580605,45.62730982607179],[-73.49632313119827,45.627446600879104],[-73.49499296902995,45.63011184577565],[-73.4927792314407,45.630867596082574],[-73.492522749625,45.6306390298596],[-73.49034333738666,45.63264728998116],[-73.49179025963153,45.631533406915715],[-73.4924520305386,45.63196897023892],[-73.49103960965972,45.633842309138245],[-73.49167183323904,45.63450012354743],[-73.49042879841637,45.63551594646359],[-73.48985394152528,45.63682964570996],[-73.48788586517028,45.638867567692586],[-73.48703542525223,45.63874149933193],[-73.48745994436541,45.6390240941952],[-73.48724822348312,45.639432593226154],[-73.48800077928753,45.64136370530559],[-73.48801331228674,45.64286461511818],[-73.4871474311457,45.64842094750923],[-73.48634409034636,45.649292792149026],[-73.48734526452415,45.65319815076877],[-73.48669594596906,45.65347162556609],[-73.48726047245432,45.65359226920146],[-73.487720962847,45.654233888924225],[-73.4885877470976,45.65722500659643],[-73.48917401433316,45.65801961048284],[-73.48884275768286,45.65908226944251],[-73.48942018299732,45.659172306207836],[-73.48997437036957,45.66000199037693],[-73.49076565341507,45.66308936409336],[-73.49134944360004,45.66380205833649],[-73.49163532658767,45.66585548233208],[-73.49128608307375,45.66701354026521],[-73.49112074066511,45.67371095705109],[-73.48982465954737,45.67900723919436],[-73.48996026324076,45.681575361818574],[-73.48854581900183,45.68622641691699],[-73.4869957757069,45.687955695089016],[-73.48552691048236,45.68831815921042],[-73.48551191804421,45.68908434336386],[-73.48196906298787,45.69241901835288],[-73.48050823521518,45.69484199913925],[-73.48009142889293,45.69682241112397],[-73.47867400302859,45.699356936763486],[-73.47846804442032,45.700524860978746],[-73.47798509820382,45.700676840644824],[-73.47743103574122,45.70197154745475],[-73.4772295564576,45.70165657342391],[-73.47599347945535,45.7030159320417],[-73.47657131516544,45.703156419056555],[-73.48144808438263,45.701804891349454],[-73.48324340078372,45.70182226870116],[-73.48417398892808,45.70152950569055]],[[-73.60802147528229,45.44055244811596],[-73.60812903574755,45.44011244654435],[-73.60914492095051,45.44044405688736],[-73.60817166322677,45.44015761852493],[-73.60802147528229,45.44055244811596]],[[-73.60788672665026,45.44068530377222],[-73.60757598064716,45.44179664267362],[-73.60025665558699,45.44348526121542],[-73.59801252509322,45.44440060296895],[-73.59583096000728,45.444633972681295],[-73.59505453816402,45.44414568701879],[-73.59530408554315,45.44391568279635],[-73.59597929034759,45.44406629967818],[-73.59958827647557,45.44349879885253],[-73.60061790147682,45.44283157507463],[-73.60304551458958,45.44253885690995],[-73.604201917766,45.44210644976541],[-73.60421360423094,45.44157199336822],[-73.6048111382923,45.44196710065019],[-73.6066681152325,45.44169382647057],[-73.60686819500538,45.440867787226445],[-73.60788672665026,45.44068530377222]],[[-73.60759484497025,45.444595526525724],[-73.60872811876905,45.44382936801668],[-73.60887306135089,45.44326915089006],[-73.60918966091113,45.4430528840834],[-73.60927287110076,45.44068403008302],[-73.60935160949167,45.4424010917673],[-73.61045965921743,45.44295756516006],[-73.60936799534312,45.44241807134329],[-73.60922521931435,45.443036443596164],[-73.6088617763291,45.44335353160506],[-73.60903081879478,45.44403611583874],[-73.60766036548338,45.44463145888193],[-73.60584678335816,45.44626269468937],[-73.60533025291856,45.445463815266045],[-73.6046056362201,45.44516644905359],[-73.60453094502907,45.44482154185295],[-73.60531443134407,45.4446630228914],[-73.6050585221741,45.445191649323945],[-73.60536903539673,45.44542086955503],[-73.60684337292132,45.44522945019061],[-73.60759484497025,45.444595526525724]],[[-73.58076037460394,45.463643616114425],[-73.58049226394898,45.46584981529848],[-73.57947021472299,45.46852687783606],[-73.57755436527512,45.47104145162328],[-73.57514208743598,45.473226438613366],[-73.57476452613498,45.47294322552023],[-73.57800486232294,45.47008973996625],[-73.57980105150895,45.466395974264096],[-73.58024640213557,45.46363879366416],[-73.57984790318467,45.45881086984056],[-73.58117953949142,45.45510379570847],[-73.5829483752523,45.45298345540094],[-73.58679442880594,45.45013264784047],[-73.58938320063865,45.447575310122865],[-73.5995867232894,45.43603107435408],[-73.60183005541495,45.434197120713414],[-73.6174751392941,45.42415416116932],[-73.62801306316697,45.42043153832077],[-73.62967913702883,45.41893056349935],[-73.6310277057189,45.41598006964819],[-73.63178284681942,45.4160477886417],[-73.63044786105826,45.41894149000566],[-73.62876626051275,45.420618730009615],[-73.62718645708216,45.42142102037397],[-73.61802828793046,45.42448703837448],[-73.6006205305669,45.435946369487716],[-73.59080873028148,45.446813151830966],[-73.58695472397373,45.45059639755519],[-73.58332200150313,45.45331951154702],[-73.58171977240568,45.455215707282626],[-73.58044747704596,45.4587000681297],[-73.58076037460394,45.463643616114425]],[[-73.69353467866608,45.4585628537202],[-73.69371409112281,45.45885152978684],[-73.69304240061899,45.45806571104381],[-73.69353467866608,45.4585628537202]],[[-73.69238648964232,45.46213847144448],[-73.69195389679602,45.46314563341944],[-73.69194365963276,45.46290175100334],[-73.69149566837281,45.46304591641774],[-73.69197589966213,45.462755418560675],[-73.69352076517725,45.459748262760975],[-73.69430858027125,45.459315559761095],[-73.69372767809384,45.45887742137238],[-73.69505608264392,45.45941362076474],[-73.69364839377924,45.45973681591528],[-73.69238648964232,45.46213847144448]],[[-73.81725733962377,45.48573023652221],[-73.81680528481469,45.4861042154371],[-73.81705962689904,45.485613049768936],[-73.8156478996122,45.48610645726843],[-73.81647097782891,45.486376906131845],[-73.81548665493801,45.4871797799423],[-73.81493007991482,45.487228008463724],[-73.81372886610255,45.488613486461226],[-73.8105811914759,45.488476952930775],[-73.81062644656298,45.48717183840665],[-73.81190542323661,45.48654800011288],[-73.81346061115183,45.48677064653284],[-73.81466374259483,45.48521931802275],[-73.8160589400948,45.48523619601976],[-73.81841402798904,45.48467322717002],[-73.81725733962377,45.48573023652221]],[[-73.59714878145326,45.498278798827904],[-73.59767612345449,45.49802063262569],[-73.59882197827778,45.49883656287362],[-73.59731659089921,45.4994140496079],[-73.59688375711298,45.49892403788828],[-73.59616331846496,45.49903551020503],[-73.59613077841966,45.49845472977024],[-73.59714878145326,45.498278798827904]],[[-73.76378995431068,45.504666824087096],[-73.76418962469779,45.505016329489116],[-73.76402390774979,45.50426169696798],[-73.76346504056451,45.50419504215098],[-73.76401477916173,45.504063607612295],[-73.76750382119998,45.5036661499848],[-73.76814807327493,45.503949698144616],[-73.7680555932819,45.50143945362148],[-73.7703155744854,45.49916274336917],[-73.77089144634799,45.496980435065126],[-73.7701669444838,45.49582459004451],[-73.77045567490912,45.49490245822475],[-73.769971225708,45.49342641792501],[-73.77033123059378,45.49182629005238],[-73.76995378266353,45.49063219021586],[-73.76915691582307,45.48990785865917],[-73.77005130632443,45.49065037840528],[-73.77040039044924,45.491905600947184],[-73.77002685732988,45.49341592152055],[-73.7705260689905,45.49489653129956],[-73.77024328389317,45.49586299556482],[-73.77095149539426,45.49703673062362],[-73.77031978132676,45.49935738614467],[-73.76812937792985,45.50145598115997],[-73.76843054698651,45.50393290958996],[-73.7673913263262,45.504290688261754],[-73.76594948388365,45.50385637815279],[-73.7652783970848,45.50439038378974],[-73.76427315271731,45.504316706124364],[-73.76441082528969,45.504856003306834],[-73.76418088305134,45.50507077965441],[-73.76378995431068,45.504666824087096]],[[-73.76378995431068,45.504666824087096],[-73.76334194888025,45.50449163267893],[-73.76289509688257,45.50490731906471],[-73.76329900399259,45.505285333344226],[-73.76233457731276,45.504929609887135],[-73.7622976596205,45.505266019717375],[-73.76125576182322,45.50559265835782],[-73.76094027215021,45.5064370698878],[-73.76044775843243,45.50619920833436],[-73.76096565465936,45.505554735460116],[-73.76221576191838,45.50517867957356],[-73.76215016989806,45.50481313714327],[-73.76295989506241,45.504757716029886],[-73.76331899227466,45.504313439362996],[-73.76378995431068,45.504666824087096]],[[-73.55004086216536,45.50871319417497],[-73.54981080736424,45.509145480358995],[-73.54721248901251,45.50914581050646],[-73.54771332898595,45.508726545328436],[-73.54845358097016,45.508947154200186],[-73.54911047488663,45.50892084943481],[-73.54970796611241,45.50834144503539],[-73.54941261566152,45.50835313535697],[-73.54965923985479,45.50788969094692],[-73.54837300720126,45.507940920502534],[-73.54844624098405,45.50885543537076],[-73.5480169853018,45.50879418525396],[-73.54774107667009,45.50868498853345],[-73.54794514319279,45.50811214340972],[-73.54769435353263,45.5077159201659],[-73.55063395013907,45.50759873878161],[-73.55004086216536,45.50871319417497]],[[-73.5468548096438,45.50800154572966],[-73.54670270572612,45.508522609184666],[-73.54640230904602,45.508478899449116],[-73.54662382573463,45.507758331327324],[-73.54764390216262,45.50771795795579],[-73.54772804692665,45.50796693923932],[-73.5468548096438,45.50800154572966]],[[-73.7072830986326,45.5094916756976],[-73.7077218773526,45.510054808963346],[-73.70740442904592,45.50982410045643],[-73.7072418198908,45.510201536156934],[-73.70640327897907,45.50988497912868],[-73.70510625246982,45.51091650079966],[-73.70315211652598,45.50973734870209],[-73.704028108238,45.50967730650643],[-73.70438509681829,45.5099567353811],[-73.70465718821723,45.50965758897916],[-73.7072830986326,45.5094916756976]],[[-73.56785902950024,45.52385598913766],[-73.56738203651933,45.52337797897138],[-73.56772940430064,45.523033099292256],[-73.5682976781326,45.52346756417047],[-73.56973717491313,45.52381251983816],[-73.56986795238625,45.52421816965837],[-73.56906590213534,45.52523742917428],[-73.56999735777943,45.52550177443582],[-73.56986212725252,45.5257840456444],[-73.56852487666877,45.5253437190122],[-73.56919802000358,45.52408640909397],[-73.56785902950024,45.52385598913766]],[[-73.57051133855633,45.52539347759359],[-73.57223381492743,45.52531205512695],[-73.57244032588375,45.525982276194874],[-73.57069723430683,45.525970123319134],[-73.57034791859621,45.52573508456509],[-73.57051133855633,45.52539347759359]],[[-73.58815249955659,45.606909144238934],[-73.58785404984502,45.60677720771591],[-73.58814816898624,45.60650227040022],[-73.59032580585124,45.60653656244157],[-73.5925690177255,45.607793087259935],[-73.59379083417555,45.60808723200778],[-73.59396625058606,45.608724308168],[-73.59539057386546,45.60939720658531],[-73.59769819652273,45.609797515635805],[-73.59818473200386,45.610720821841795],[-73.59907142482972,45.611240949240866],[-73.59912244831918,45.612500094364265],[-73.59977092002727,45.61331960146017],[-73.59869349842403,45.61261679282191],[-73.59869972519559,45.61148401747388],[-73.59735656632557,45.610585910835745],[-73.59639008311814,45.61041713866281],[-73.59577101933266,45.609952333231305],[-73.59410984221407,45.60995890709558],[-73.59399725140766,45.60910724926476],[-73.59045555682664,45.60686241407287],[-73.58815249955659,45.606909144238934]],[[-73.60117701044597,45.61665938379813],[-73.60106552927309,45.614749880229525],[-73.60140435139702,45.61580864535743],[-73.60123743092039,45.6172870900388],[-73.60167453406928,45.61784036659746],[-73.60174779585748,45.61819066628389],[-73.6016723302988,45.6187550308214],[-73.60221104148235,45.61981021843074],[-73.60313850206715,45.62033098433776],[-73.60428622277503,45.620077534591495],[-73.60638996206973,45.62137067416216],[-73.60422010918928,45.62010093412351],[-73.6030749346375,45.620363853669026],[-73.60219233421677,45.619838574368245],[-73.60161874527842,45.61875390099321],[-73.60168070605704,45.61796429352825],[-73.60120543422957,45.61730629678743],[-73.60117701044597,45.61665938379813]],[[-73.60793758112564,45.62300326452487],[-73.60738393622837,45.62347339952186],[-73.60769852206349,45.62404840196928],[-73.60734647743384,45.623439849497785],[-73.60786830366406,45.623036546120474],[-73.60805712352789,45.62264231677737],[-73.60851488936434,45.62226896551404],[-73.60828758841976,45.62216788067261],[-73.60766243010897,45.62226917451935],[-73.60736269134696,45.62222405238718],[-73.60693895793698,45.621458746824274],[-73.6073898104525,45.62218816573987],[-73.60819370173421,45.62213470073604],[-73.60852553806501,45.62219967596509],[-73.60851755607537,45.622411405852255],[-73.60810236299437,45.62264530561216],[-73.60793758112564,45.62300326452487]],[[-73.60777285954464,45.624112734301264],[-73.60923816271796,45.6246687412786],[-73.60902733311222,45.62538235177802],[-73.60950391469264,45.6256274581918],[-73.60896264864868,45.625350497869455],[-73.60916921355897,45.62466535376151],[-73.60777285954464,45.624112734301264]],[[-73.61132310572481,45.62524910969217],[-73.61074899158055,45.625083762692626],[-73.61066040778286,45.625215649864415],[-73.6108388580031,45.62534238364863],[-73.6107353223776,45.62553243121116],[-73.61030460039989,45.62560131006985],[-73.61074701186651,45.625458527132096],[-73.61080195367667,45.62533132103602],[-73.61060884307368,45.62520066466015],[-73.61070995886581,45.62504748244339],[-73.61132310572481,45.62524910969217]],[[-73.61130585883788,45.62552038292206],[-73.61135065458686,45.625253713772636],[-73.61147630234653,45.62586504075628],[-73.61130585883788,45.62552038292206]],[[-73.61305406094874,45.62538436056085],[-73.6134372484032,45.62605972718889],[-73.61304848042015,45.626676641072216],[-73.61420534839088,45.62641460312566],[-73.61349891383519,45.62680322422715],[-73.6129116198251,45.62664670614697],[-73.61334096274734,45.62610243256618],[-73.61304966322302,45.625464426374876],[-73.61272153222735,45.62591072570946],[-73.61232293806198,45.62566199720665],[-73.61274375270723,45.62585602895251],[-73.61305406094874,45.62538436056085]],[[-73.61213569093445,45.625855203871346],[-73.61228758475761,45.625669035470864],[-73.6122247924508,45.625871030251],[-73.6118271635244,45.62615690326452],[-73.61148863251546,45.62596948383501],[-73.61182684109568,45.62612071731525],[-73.61213569093445,45.625855203871346]]]},"properties":{"DefaultAtt":null}},
{"type":"Feature","geometry":{"type":"Polygon","coordinates":[[[-73.85651564924898,45.50656394804314],[-73.8559745677332,45.50801439971152],[-73.85838714706777,45.50704401555097],[-73.85704831155935,45.50580640759521],[-73.85651564924898,45.50656394804314]]]},"properties":{"DefaultAtt":null}},
{"type":"Feature","geometry":{"type":"Polygon","coordinates":[[[-73.8213227082425,45.51325530857855],[-73.82089839644199,45.51291456151545],[-73.81933638975181,45.51281995625923],[-73.81827611767865,45.51317385362471],[-73.81816563217677,45.51400203324412],[-73.82101982402901,45.51400304625562],[-73.8213227082425,45.51325530857855]]]},"properties":{"DefaultAtt":null}},
{"type":"Feature","geometry":{"type":"Polygon","coordinates":[[[-73.81358556323072,45.48811985683343],[-73.8143434330282,45.48747391401039],[-73.81340684468128,45.48778056332829],[-73.81358556323072,45.48811985683343]]]},"properties":{"DefaultAtt":null}},
{"type":"Feature","geometry":{"type":"Polygon","coordinates":[[[-73.81148132720557,45.48716520020046],[-73.81206976609093,45.48753627435711],[-73.81252179136091,45.48735481456208],[-73.81148132720557,45.48716520020046]]]},"properties":{"DefaultAtt":null}},
{"type":"Feature","geometry":{"type":"Polygon","coordinates":[[[-73.81182413768884,45.48742656026398],[-73.81149823659537,45.4872048562685],[-73.8111182226628,45.48759446884969],[-73.81182413768884,45.48742656026398]]]},"properties":{"DefaultAtt":null}},
{"type":"Feature","geometry":{"type":"Polygon","coordinates":[[[-73.75816262325638,45.51006471718753],[-73.75840197699934,45.51011015010385],[-73.75832284035451,45.5099997557255],[-73.75816262325638,45.51006471718753]]]},"properties":{"DefaultAtt":null}},
{"type":"Feature","geometry":{"type":"Polygon","coordinates":[[[-73.75641794879725,45.51084428384228],[-73.7572609372909,45.51051873313196],[-73.7571433904352,45.51024717345528],[-73.75659264960579,45.510357834087785],[-73.75641794879725,45.51084428384228]]]},"properties":{"DefaultAtt":null}},
{"type":"Feature","geometry":{"type":"Polygon","coordinates":[[[-73.75696619225191,45.51596306891077],[-73.75665322945063,45.514422335209375],[-73.75385916260433,45.514137039765046],[-73.75270686689565,45.51490445988056],[-73.75182341842898,45.51769232848425],[-73.7524940573683,45.517959001099236],[-73.75499367176268,45.51734784655123],[-73.75604320704824,45.51649334773753],[-73.75687059213645,45.51632862029118],[-73.75696619225191,45.51596306891077]]]},"properties":{"DefaultAtt":null}},
{"type":"Feature","geometry":{"type":"Polygon","coordinates":[[[-73.73985329927645,45.43058271562216],[-73.73880609046147,45.43091880504557],[-73.7374704146677,45.43228420129714],[-73.73691629689212,45.43356617668209],[-73.74007221086649,45.433759963055444],[-73.74223051748926,45.43348472083493],[-73.74431902620272,45.43372329488189],[-73.74618622000949,45.43234975867835],[-73.74569591655332,45.43170695274468],[-73.7446747653258,45.43124956860322],[-73.73985329927645,45.43058271562216]]]},"properties":{"DefaultAtt":null}},
{"type":"Feature","geometry":{"type":"Polygon","coordinates":[[[-73.734129996214,45.43319826265918],[-73.7345153478946,45.43262731255593],[-73.73380245484266,45.43232354410064],[-73.73345512081637,45.43298771249578],[-73.734129996214,45.43319826265918]]]},"properties":{"DefaultAtt":null}},
{"type":"Feature","geometry":{"type":"Polygon","coordinates":[[[-73.72558750859152,45.43263875541264],[-73.72567210973853,45.43211450225762],[-73.72455882487134,45.43149587588926],[-73.72302717761191,45.432223391332016],[-73.72558750859152,45.43263875541264]]]},"properties":{"DefaultAtt":null}},
{"type":"Feature","geometry":{"type":"Polygon","coordinates":[[[-73.71450539626072,45.538215797530846],[-73.71430805888603,45.53851401392424],[-73.71492502297373,45.53845706531443],[-73.71508377893392,45.53811572785798],[-73.71450539626072,45.538215797530846]]]},"properties":{"DefaultAtt":null}},
{"type":"Feature","geometry":{"type":"Polygon","coordinates":[[[-73.68359670111,45.432546105005954],[-73.68361675103708,45.432297567126405],[-73.68077117053957,45.43233178180766],[-73.67758829163786,45.43136465953119],[-73.67486372597148,45.43095470145267],[-73.67090618927053,45.43111766500632],[-73.67160702045129,45.43070564262511],[-73.67147530054525,45.43042364289011],[-73.66940115059712,45.43101848879659],[-73.6695934104165,45.43130616571665],[-73.67089030497345,45.43113956999823],[-73.67728279834694,45.43158772501876],[-73.68198387892423,45.432864592774266],[-73.68359670111,45.432546105005954]]]},"properties":{"DefaultAtt":null}},
{"type":"Feature","geometry":{"type":"Polygon","coordinates":[[[-73.66055589227608,45.580598242417295],[-73.66210054823094,45.57815169731559],[-73.66392105314638,45.57680028843345],[-73.66599110735781,45.57405655624977],[-73.66604490104581,45.573637228028],[-73.66529557781166,45.57283106700799],[-73.66394213107492,45.57297730464273],[-73.66249684431506,45.57490454192268],[-73.66138940349026,45.57476124903314],[-73.66124329570651,45.57521632951012],[-73.66171975479216,45.57508660177553],[-73.66178723412257,45.57586836896667],[-73.66135519506584,45.578018687339444],[-73.66041987900137,45.578941430827214],[-73.6606641098069,45.57921103691956],[-73.65955695967772,45.580546137659766],[-73.65764189542017,45.58122817741978],[-73.65686355827721,45.58196082258226],[-73.65671947795106,45.58268088476925],[-73.65717664389625,45.58196559878473],[-73.65734351770239,45.58216418856709],[-73.65902642437412,45.58101618444488],[-73.66055589227608,45.580598242417295]]]},"properties":{"DefaultAtt":null}},
{"type":"Feature","geometry":{"type":"Polygon","coordinates":[[[-73.655979361963,45.435921624902484],[-73.65540466733005,45.43617598417707],[-73.65645302760282,45.43578371427133],[-73.655979361963,45.435921624902484]]]},"properties":{"DefaultAtt":null}},
{"type":"Feature","geometry":{"type":"Polygon","coordinates":[[[-73.6552700146171,45.58544265842297],[-73.65520392399704,45.5861059334866],[-73.65558766398017,45.586308773936196],[-73.656058728719,45.58565484517267],[-73.65622894441655,45.58414559561903],[-73.6552700146171,45.58544265842297]]]},"properties":{"DefaultAtt":null}},
{"type":"Feature","geometry":{"type":"Polygon","coordinates":[[[-73.61500098578321,45.63593136420273],[-73.6160024088884,45.63575938555812],[-73.61699307448866,45.63597072983105],[-73.61623071681225,45.63451469242248],[-73.615516827882,45.63477456354973],[-73.61500098578321,45.63593136420273]]]},"properties":{"DefaultAtt":null}},
{"type":"Feature","geometry":{"type":"Polygon","coordinates":[[[-73.61222660228111,45.637892167348994],[-73.61252914168084,45.638441657283565],[-73.61305752091803,45.63838714631263],[-73.6155443569403,45.636321342201626],[-73.61437625341401,45.63652678776648],[-73.61233600555796,45.63807831588923],[-73.61222660228111,45.637892167348994]]]},"properties":{"DefaultAtt":null}},
{"type":"Feature","geometry":{"type":"Polygon","coordinates":[[[-73.60640017570462,45.6431653437172],[-73.60727984694081,45.64297375726676],[-73.60763957730403,45.64191251763257],[-73.60856750307289,45.641479725441435],[-73.60938105015356,45.64028577237966],[-73.60760805251905,45.64018848459259],[-73.60478557609107,45.64136539259145],[-73.60439614434185,45.64166539659085],[-73.60657593103609,45.641138772345705],[-73.60699746452602,45.641541496457435],[-73.60526075404375,45.641654691145675],[-73.60318817276607,45.64259871393099],[-73.60059378421467,45.644471785169834],[-73.6000665996218,45.645236208155026],[-73.60139407099136,45.6450595639104],[-73.6012996737692,45.64464391997999],[-73.60193532110297,45.6449879841286],[-73.60230072276629,45.64486707803518],[-73.60234614129566,45.64515138593623],[-73.6038130691927,45.6440738627973],[-73.60274309396895,45.645444367619135],[-73.60144711926753,45.646019618271616],[-73.60221850603301,45.64621329717122],[-73.60586921189088,45.64392349667462],[-73.60640017570462,45.6431653437172]]]},"properties":{"DefaultAtt":null}},
{"type":"Feature","geometry":{"type":"Polygon","coordinates":[[[-73.5987668106029,45.420613476128224],[-73.59961691463131,45.41968983171804],[-73.59897399821577,45.41984676698701],[-73.59695557631015,45.42190305221947],[-73.5987668106029,45.420613476128224]]]},"properties":{"DefaultAtt":null}},
{"type":"Feature","geometry":{"type":"Polygon","coordinates":[[[-73.59465232958406,45.60964947319823],[-73.59554075072074,45.60974185775661],[-73.59446537202216,45.60945279096511],[-73.59465232958406,45.60964947319823]]]},"properties":{"DefaultAtt":null}},
{"type":"Feature","geometry":{"type":"Polygon","coordinates":[[[-73.59071471660732,45.42862653071668],[-73.59175625403707,45.428928204678016],[-73.5918026328547,45.428775543606015],[-73.59071471660732,45.42862653071668]]]},"properties":{"DefaultAtt":null}},
{"type":"Feature","geometry":{"type":"Polygon","coordinates":[[[-73.59138932028667,45.42936819739285],[-73.59148955790242,45.4291489884673],[-73.59100985249428,45.42914159461901],[-73.59138932028667,45.42936819739285]]]},"properties":{"DefaultAtt":null}},
{"type":"Feature","geometry":{"type":"Polygon","coordinates":[[[-73.59064252790091,45.428593335576736],[-73.59006375848523,45.428012411571466],[-73.59030112977742,45.4286388184125],[-73.59064252790091,45.428593335576736]]]},"properties":{"DefaultAtt":null}},
{"type":"Feature","geometry":{"type":"Polygon","coordinates":[[[-73.59027772643101,45.420596053691455],[-73.59060636953912,45.42052495617039],[-73.59035527422157,45.42050643736095],[-73.59027772643101,45.420596053691455]]]},"properties":{"DefaultAtt":null}},
{"type":"Feature","geometry":{"type":"Polygon","coordinates":[[[-73.97567677665764,45.420284213453805],[-73.97494831363116,45.42026924768],[-73.97377743346622,45.42083202135106],[-73.97332600933679,45.42032997327894],[-73.97249652775261,45.420459387475894],[-73.97205821541341,45.42153203769102],[-73.97314672435267,45.42181548792145],[-73.97338769689543,45.42159852396604],[-73.97329321937755,45.42252577620047],[-73.9737679590289,45.42275777067285],[-73.97457199076628,45.422637451601354],[-73.97528380495802,45.42218455504436],[-73.97560869997908,45.42131034207235],[-73.97625917387596,45.42116365469485],[-73.97525940045526,45.420798869047424],[-73.97639374907506,45.42045219811381],[-73.97626272151282,45.42006579742909],[-73.97567677665764,45.420284213453805]]]},"properties":{"DefaultAtt":null}},
{"type":"Feature","geometry":{"type":"Polygon","coordinates":[[[-73.96783254205909,45.4142605123489],[-73.96682676683497,45.414696558968274],[-73.96834373322503,45.41427641460162],[-73.96859307769691,45.413528501414774],[-73.96783254205909,45.4142605123489]]]},"properties":{"DefaultAtt":null}},
{"type":"Feature","geometry":{"type":"Polygon","coordinates":[[[-73.9652486425075,45.41233636369915],[-73.96535180824893,45.412452924943736],[-73.96519451108098,45.41196763369541],[-73.9652486425075,45.41233636369915]]]},"properties":{"DefaultAtt":null}},
{"type":"Feature","geometry":{"type":"Polygon","coordinates":[[[-73.95983907191354,45.405384324220186],[-73.95600714489332,45.403851920582426],[-73.95559968725262,45.404015521188775],[-73.95169319030548,45.40271723329892],[-73.95728081922144,45.404971661088474],[-73.95671318060461,45.404281032019355],[-73.95983907191354,45.405384324220186]]]},"properties":{"DefaultAtt":null}},
{"type":"Feature","geometry":{"type":"Polygon","coordinates":[[[-73.94608047960918,45.46056420826676],[-73.9464643727512,45.46059870242162],[-73.94632065527159,45.460212328497896],[-73.94584861947568,45.460349140681956],[-73.94608047960918,45.46056420826676]]]},"properties":{"DefaultAtt":null}},
{"type":"Feature","geometry":{"type":"Polygon","coordinates":[[[-73.89382287706121,45.51786959104491],[-73.89650671046893,45.51725740437582],[-73.89705397416655,45.51681458127888],[-73.89697374880332,45.51632893704947],[-73.89768898590211,45.51611047851658],[-73.8984058809844,45.5161259860347],[-73.89996234844547,45.51720937233691],[-73.90225373149123,45.51723733760551],[-73.90234127555355,45.516949071331005],[-73.90099147348232,45.51613494450498],[-73.90144916121328,45.51570140429521],[-73.90260051589479,45.51561637525004],[-73.90199952219753,45.513908757786936],[-73.90257049865416,45.51321386005955],[-73.90303626695146,45.5103416755127],[-73.906004110912,45.50837848996388],[-73.90703914700943,45.50815884424894],[-73.90757887041701,45.508462875011695],[-73.90947226638879,45.50836611929931],[-73.90982588038004,45.50771695570783],[-73.91148565899114,45.507180079400875],[-73.9125902437514,45.50597928648951],[-73.91276219629643,45.503252096592846],[-73.9140533157364,45.501330722042304],[-73.91522788634023,45.500966520976945],[-73.91748359117521,45.5014442410587],[-73.91861728717814,45.50074721234123],[-73.9218370672852,45.500096495808116],[-73.9238688919243,45.498028340304266],[-73.92445917266362,45.496550403726054],[-73.92703460284433,45.49364332242112],[-73.92911014941488,45.49401349669059],[-73.93219956873038,45.49311103346025],[-73.93255149280382,45.49395556438131],[-73.93351915193044,45.49334000147295],[-73.93497727602936,45.49328048516007],[-73.93615357132134,45.49152130182682],[-73.93654940746232,45.49142081553806],[-73.93680821238436,45.491797761160726],[-73.93747944787478,45.49091335279034],[-73.93983433868348,45.489374581028834],[-73.940204520649,45.48762745431202],[-73.94113888773869,45.486049119171525],[-73.9412101455466,45.48370924355511],[-73.94338408220102,45.483610858817464],[-73.9436975899226,45.48280877802386],[-73.94306966095868,45.48266723113996],[-73.94225655067169,45.483381260993056],[-73.9410416053109,45.483421934756464],[-73.9403808016835,45.48234466832402],[-73.94097506446235,45.48145152740235],[-73.94065407733692,45.48129979216089],[-73.9394682558702,45.48179026905452],[-73.9386469424532,45.481451475381085],[-73.93835241565581,45.47976088492286],[-73.93874579115332,45.479354452218395],[-73.94022695785749,45.479015818771664],[-73.9412791821594,45.479443694124825],[-73.9424146333596,45.479061374991545],[-73.94418775747569,45.4768138824461],[-73.94419185199062,45.47570705389083],[-73.942168968712,45.47545392892025],[-73.94218351800657,45.475678834542904],[-73.94062648155695,45.476116769507264],[-73.93726312650756,45.47619265702822],[-73.93568074670594,45.47666660665727],[-73.93350292271847,45.47622494672121],[-73.93257770001294,45.47733526680316],[-73.9313548799609,45.478005769392794],[-73.93012478632369,45.4777224480196],[-73.92941398524215,45.476762276752545],[-73.92774319098963,45.477398430038285],[-73.92659987688364,45.47674580819482],[-73.92531487392571,45.47765943720842],[-73.92432514610122,45.47701521913337],[-73.92399393513848,45.47719640973445],[-73.92417050219214,45.47686281941401],[-73.92182204812872,45.47410896586442],[-73.92009287853712,45.47377337853181],[-73.91964704625529,45.47401797626487],[-73.9177682150408,45.47073140996122],[-73.9158429788267,45.47328498811635],[-73.91709072267872,45.47077887821664],[-73.9161314754599,45.47077336954864],[-73.91541053693804,45.47012809834461],[-73.91436059263441,45.46996093186287],[-73.91362780504414,45.469441675512215],[-73.91257879780251,45.469400476846666],[-73.91273974255866,45.46867101792212],[-73.91400009215823,45.46788358836306],[-73.9122113499187,45.46811501968076],[-73.90843465250987,45.469334366119185],[-73.90434411509794,45.46960985778166],[-73.90254753970838,45.46875233970486],[-73.9023502068613,45.467979164957406],[-73.90159415095582,45.467765861842715],[-73.8998007781007,45.46915791125559],[-73.89894488331899,45.469295872259266],[-73.89969228265743,45.47009412474023],[-73.90154847018778,45.47033958101636],[-73.90298940135379,45.46974061524846],[-73.90457727243484,45.470022962565096],[-73.90505490389208,45.470642169732045],[-73.9037033666268,45.471222844196326],[-73.90282980208873,45.47067702069275],[-73.90257689410265,45.47108284411436],[-73.9017432433963,45.470752826458124],[-73.90136333119612,45.47128507257329],[-73.89922089491382,45.47216542452693],[-73.89800393978965,45.471890718328375],[-73.8952939765131,45.47209808642788],[-73.89216888171285,45.471460967642514],[-73.89104609116157,45.47185175171552],[-73.88640915886137,45.47643875031846],[-73.883404585738,45.47850951641102],[-73.87964346836841,45.48033976975808],[-73.87843600888488,45.48149558038995],[-73.87827993277868,45.483025836604135],[-73.8797748985947,45.482768919024636],[-73.87856244836993,45.483186873034235],[-73.87764276429142,45.48530456484733],[-73.87663862689116,45.48627971389505],[-73.87551329445105,45.48634640807464],[-73.87245009719969,45.48548358631111],[-73.87073485654581,45.48727986835031],[-73.86868195462692,45.48832134409819],[-73.86644330990258,45.49032621334168],[-73.86431171578685,45.49109790883495],[-73.86376748743272,45.49201748528585],[-73.86429539787578,45.49253771301218],[-73.86430027116701,45.49329358037733],[-73.86313400445486,45.494980012310954],[-73.86148940995214,45.49591206848789],[-73.86108750139068,45.497092144537035],[-73.86116898813626,45.497829759157746],[-73.86249174766054,45.498581447015525],[-73.86322814989514,45.49967691735831],[-73.86335060749806,45.50278102347015],[-73.86204996018743,45.50349603826343],[-73.86045229234763,45.503798039149984],[-73.85980313655242,45.50434000039644],[-73.85979347662116,45.50682362361292],[-73.85930239490493,45.50807596814048],[-73.85850116314221,45.508861359465854],[-73.8555297275308,45.51051738409865],[-73.85503555250286,45.51130179247905],[-73.85518010549816,45.51189523879587],[-73.85593595587588,45.512009874339114],[-73.85632586151021,45.51294450302381],[-73.85701998546665,45.51341025337946],[-73.85811842514218,45.5130558767316],[-73.85755828219473,45.51352554911499],[-73.85729626653091,45.514588199588545],[-73.86128600984043,45.51600641595385],[-73.86362616388224,45.51764571966116],[-73.86509971450862,45.517883976531316],[-73.86377395486576,45.51872506701035],[-73.86379059434914,45.51931891773328],[-73.86795978890012,45.51874765394735],[-73.86930881409147,45.51950818275333],[-73.87903985843005,45.51990824008655],[-73.88281054405853,45.52098449948368],[-73.88601951395563,45.520397802541105],[-73.88712719437146,45.519530198143315],[-73.88786023379116,45.51816893424351],[-73.88888615529518,45.518444396902346],[-73.88979350844174,45.518234340891134],[-73.89060445952275,45.51888847221511],[-73.89128267678879,45.51885915585408],[-73.89382287706121,45.51786959104491]],[[-73.89787990955315,45.491157770280346],[-73.89719914231284,45.491261776317096],[-73.89709548460792,45.49101895441432],[-73.89849710587521,45.49057555250871],[-73.89787990955315,45.491157770280346]],[[-73.90073525488648,45.49216043101732],[-73.90081741275738,45.49132317692223],[-73.90155022140887,45.49114493566506],[-73.90152401839018,45.49158935271262],[-73.90073525488648,45.49216043101732]],[[-73.89983115185233,45.49303158057721],[-73.90060298525954,45.49214024422673],[-73.9005220807425,45.493153156743524],[-73.89983115185233,45.49303158057721]],[[-73.89774335752533,45.494678603669584],[-73.89708282505863,45.4947041447903],[-73.89669161100548,45.4938478527182],[-73.89963286642875,45.49284801274889],[-73.89774335752533,45.494678603669584]],[[-73.89644544544542,45.49427390156984],[-73.89532622918112,45.49466269696449],[-73.89504471787363,45.49451561830906],[-73.89513957375014,45.49404154920487],[-73.89652647833674,45.49382948451245],[-73.89644544544542,45.49427390156984]]]},"properties":{"DefaultAtt":null}},
{"type":"Feature","geometry":{"type":"Polygon","coordinates":[[[-73.94238200019278,45.46671555776474],[-73.94321322944224,45.4667123442836],[-73.94347937733346,45.466405362554184],[-73.94311906069804,45.46611880915126],[-73.94302035292503,45.46657811513349],[-73.94171518700848,45.46648417751238],[-73.94238200019278,45.46671555776474]]]},"properties":{"DefaultAtt":null}},
{"type":"Feature","geometry":{"type":"Polygon","coordinates":[[[-73.91322432597127,45.46867219219007],[-73.91400830835131,45.46855553655397],[-73.914615875415,45.4680515001279],[-73.91421864769184,45.46640699085486],[-73.91399021381861,45.466970892555494],[-73.91432729094062,45.46781750566687],[-73.91322432597127,45.46867219219007]]]},"properties":{"DefaultAtt":null}},
{"type":"Feature","geometry":{"type":"Polygon","coordinates":[[[-73.88024433348212,45.47838510301227],[-73.87957040188469,45.47898124357035],[-73.8813170036578,45.47812057152853],[-73.88077913057688,45.47802338260543],[-73.88024433348212,45.47838510301227]]]},"properties":{"DefaultAtt":null}},
{"type":"Feature","geometry":{"type":"Polygon","coordinates":[[[-73.87990252081306,45.475101805811086],[-73.87955965644704,45.47547188317519],[-73.88096640274112,45.47544019588705],[-73.8805162084914,45.47506376921773],[-73.87990252081306,45.475101805811086]]]},"properties":{"DefaultAtt":null}},
{"type":"Feature","geometry":{"type":"Polygon","coordinates":[[[-73.87533159226538,45.482099721941715],[-73.87495196466857,45.482721862841096],[-73.87538861474266,45.48298138419431],[-73.87456626271054,45.48436085749837],[-73.87617879187296,45.48446353121413],[-73.87643655109889,45.48475064164695],[-73.8770995932479,45.484424501240454],[-73.87736426142804,45.48382972861765],[-73.87734126980881,45.48230006554771],[-73.87709558847567,45.4819049443509],[-73.87659850634621,45.482176538261456],[-73.87533159226538,45.482099721941715]]]},"properties":{"DefaultAtt":null}},
{"type":"Feature","geometry":{"type":"Polygon","coordinates":[[[-73.86020962807208,45.48984213620384],[-73.85914041013929,45.490700355940625],[-73.86010280268759,45.491147248684115],[-73.86083094651913,45.49097398031958],[-73.86129925809288,45.4901806361906],[-73.86090001953899,45.48976796060792],[-73.86020962807208,45.48984213620384]]]},"properties":{"DefaultAtt":null}},
{"type":"Feature","geometry":{"type":"Polygon","coordinates":[[[-73.85784807096815,45.49876705910315],[-73.85733527744067,45.49861569091203],[-73.85695413498284,45.49904880768212],[-73.85784807096815,45.49876705910315]]]},"properties":{"DefaultAtt":null}}
]}